{
"type": "FeatureCollection",
"name": "boundary",
"crs": { "type": "name", "properties": { "name": "urn:ogc:def:crs:OGC:1.3:CRS84" } },
"features": [
{ "type": "Feature", "properties": { }, "geometry": { "type": "Polygon", "coordinates": [ [ [ 95.373657226000091, 27.107999801000119 ], [ 95.372673035000105, 27.101671220000071 ], [ 95.385467530000142, 27.105091095000148 ], [ 95.386116028000117, 27.111709595000093 ], [ 95.406311034000055, 27.118320465000124 ], [ 95.420272828000122, 27.130781174000049 ], [ 95.429191589000084, 27.134050369000079 ], [ 95.440986634000126, 27.132810594000091 ], [ 95.450752259000183, 27.138839722000171 ], [ 95.457786561000091, 27.135641099000111 ], [ 95.465850829000146, 27.154800415000125 ], [ 95.45870971700009, 27.163288117000036 ], [ 95.468009948000145, 27.172290802000191 ], [ 95.463668824000138, 27.182121277000078 ], [ 95.468643188000158, 27.190500260000135 ], [ 95.458900451000034, 27.20956993100009 ], [ 95.459709167000199, 27.213430404000064 ], [ 95.469429017000095, 27.218259811000053 ], [ 95.48722839300018, 27.246030807000125 ], [ 95.506278991000102, 27.254619599000023 ], [ 95.510643005000077, 27.258979798000098 ], [ 95.510887147000176, 27.266269685000111 ], [ 95.516181945000028, 27.268630981000058 ], [ 95.520462036000083, 27.263740539000082 ], [ 95.534812928000179, 27.270620347000033 ], [ 95.55416107200017, 27.259340286000054 ], [ 95.556137085000159, 27.254369735000125 ], [ 95.574462891000167, 27.251060485000039 ], [ 95.578300476000152, 27.247140884000032 ], [ 95.577880859000174, 27.242151260000185 ], [ 95.59008789100011, 27.229520798000181 ], [ 95.607353210000042, 27.231372833000023 ], [ 95.634132384999987, 27.239810943000066 ], [ 95.637001037000061, 27.236909867 ], [ 95.684417724000127, 27.25741005000009 ], [ 95.721076966000055, 27.257600784000033 ], [ 95.739929200000063, 27.269889832000047 ], [ 95.78468322700013, 27.279130935000012 ], [ 95.790802001000145, 27.285459518999971 ], [ 95.806289672000048, 27.291740419000064 ], [ 95.810195922000105, 27.280920029000072 ], [ 95.860466003000056, 27.294210434000092 ], [ 95.860847472999978, 27.279792785999973 ], [ 95.872383119, 27.266910553000173 ], [ 95.893966675000058, 27.26301193300003 ], [ 95.898109437000187, 27.264310836000107 ], [ 95.904289246000189, 27.279859542000167 ], [ 95.902389527000139, 27.287830353000061 ], [ 95.90643310500019, 27.291879655000059 ], [ 95.940567016000159, 27.309589385000038 ], [ 95.963218688000097, 27.317068100000029 ], [ 95.965568543000131, 27.321662903000174 ], [ 95.962608337000177, 27.324331283000163 ], [ 95.967857360000039, 27.324569702000076 ], [ 95.968711853000116, 27.33183098000012 ], [ 95.98420715400016, 27.334341050000148 ], [ 95.970016479000094, 27.336980821000168 ], [ 95.993682861000195, 27.351440428999979 ], [ 95.99697113000019, 27.363479615000131 ], [ 96.01319885200013, 27.364030839000065 ], [ 96.020912171000191, 27.371259689999988 ], [ 96.002052307000042, 27.39349937500009 ], [ 96.001007081000068, 27.403472900000111 ], [ 95.990936279000096, 27.414571762000037 ], [ 95.989456177000022, 27.42172050500011 ], [ 95.979522704000146, 27.421850205000169 ], [ 95.977783203, 27.435499192000179 ], [ 95.973297119999984, 27.436750411000048 ], [ 95.968032836000191, 27.424119949000044 ], [ 95.967033387000185, 27.436660767000092 ], [ 95.963577270000144, 27.43548011900009 ], [ 95.961051941000164, 27.428710937000119 ], [ 95.952972413000111, 27.433280946000139 ], [ 95.950523376000035, 27.437240602000031 ], [ 95.953071595000154, 27.443450928000118 ], [ 95.949890136000079, 27.445020676000183 ], [ 95.933273315000179, 27.446687699000165 ], [ 95.916847230000087, 27.443159104000131 ], [ 95.911170959000174, 27.439960479000092 ], [ 95.900100708000195, 27.411331178000125 ], [ 95.893058778000182, 27.406040192000034 ], [ 95.894378662000179, 27.418289184000116 ], [ 95.890029908000031, 27.426410674000124 ], [ 95.888656616000105, 27.444070817000181 ], [ 95.882591247000164, 27.444080352000185 ], [ 95.8757705700001, 27.435358048000012 ], [ 95.864906311000084, 27.429012299000192 ], [ 95.863243103000173, 27.424858094000058 ], [ 95.867332459000124, 27.417150498000069 ], [ 95.857955933000198, 27.420681001000048 ], [ 95.855735778999986, 27.427669526000159 ], [ 95.849342347000174, 27.430320740000184 ], [ 95.852912904000107, 27.44475936900011 ], [ 95.863792419000106, 27.452030182000158 ], [ 95.859458923000034, 27.462610245000064 ], [ 95.861167908000141, 27.466299058 ], [ 95.87625885000017, 27.471109391000027 ], [ 95.881256104000101, 27.487421036000057 ], [ 95.879051209000181, 27.499191285000052 ], [ 95.889640808000195, 27.506168366000111 ], [ 95.878479003999985, 27.519830704000071 ], [ 95.88080596900005, 27.522510530000147 ], [ 95.88133239800004, 27.55323028700019 ], [ 95.862358094, 27.552600860000041 ], [ 95.852096558000085, 27.565650939000079 ], [ 95.839897156000177, 27.566610336000167 ], [ 95.831932068000185, 27.578889846999971 ], [ 95.821243285000151, 27.581720352000161 ], [ 95.820259094000164, 27.595571518000099 ], [ 95.824195861000192, 27.603010177000158 ], [ 95.798027039000033, 27.607830048000096 ], [ 95.794296265000071, 27.622369767000066 ], [ 95.787117004000152, 27.623409271000071 ], [ 95.78504180900012, 27.627399445000037 ], [ 95.787345887000185, 27.632299424000166 ], [ 95.79741668600002, 27.635890960000154 ], [ 95.801452637000125, 27.64900970500014 ], [ 95.779220581000061, 27.660539628000151 ], [ 95.778472901000157, 27.672349929000063 ], [ 95.780448913000043, 27.679189682000128 ], [ 95.785491942000135, 27.683259965000047 ], [ 95.794532776000153, 27.684190751000131 ], [ 95.796470642000088, 27.688060760000155 ], [ 95.79312896800019, 27.692270280000116 ], [ 95.774551392000149, 27.696701050000058 ], [ 95.770393372, 27.720029831000033 ], [ 95.763046265000071, 27.722660064000138 ], [ 95.758216859000186, 27.731109620000097 ], [ 95.787773132000098, 27.742050170000084 ], [ 95.780532837000067, 27.758220673000153 ], [ 95.800949097, 27.77686119100008 ], [ 95.823127746000182, 27.809249879000106 ], [ 95.843368529000088, 27.821470261000115 ], [ 95.845993042000089, 27.83010101300016 ], [ 95.852096558000085, 27.834110261000035 ], [ 95.876571655000191, 27.841770173000043 ], [ 95.892097473000149, 27.857040406000067 ], [ 95.895027160000154, 27.867221833000031 ], [ 95.907226562000062, 27.868640899000013 ], [ 95.906181335000156, 27.877229692000014 ], [ 95.911376953000172, 27.873018265000042 ], [ 95.914093018000074, 27.874650956000039 ], [ 95.914001464000137, 27.880849839000177 ], [ 95.922622681000178, 27.886180879 ], [ 95.921279908000031, 27.890470505 ], [ 95.927352905000077, 27.88726043700018 ], [ 95.925010680000128, 27.900941848000173 ], [ 95.938331604000098, 27.903270722000116 ], [ 95.939315795000084, 27.909820557000046 ], [ 95.952491760000044, 27.922819138000193 ], [ 95.955299377000074, 27.926820756000041 ], [ 95.953811645000087, 27.930240631000117 ], [ 95.957542419000049, 27.93288040200008 ], [ 95.957550050000066, 27.937080384000183 ], [ 95.952346801000033, 27.937179566 ], [ 95.952316284000062, 27.941841125000167 ], [ 95.977462768000066, 27.968500138000138 ], [ 95.825881957000092, 27.977371217000041 ], [ 95.606742859000065, 27.957769394000081 ], [ 95.58866119400011, 27.941629410000132 ], [ 95.571212769000169, 27.94238090500005 ], [ 95.565048217000083, 27.922519684000122 ], [ 95.543800354000041, 27.913459777000014 ], [ 95.543533324000123, 27.902322770000069 ], [ 95.526229858000193, 27.897899628000175 ], [ 95.5159530640002, 27.881788253000025 ], [ 95.384338379000042, 27.842021942000144 ], [ 95.316558838000162, 27.871129991000089 ], [ 95.05182647800018, 27.790229798000155 ], [ 95.038757323000198, 27.777730942000176 ], [ 95.0312194830002, 27.77477073600005 ], [ 95.019149780000134, 27.772499084000174 ], [ 94.997879028, 27.776550294000174 ], [ 94.987037660000055, 27.770851135000157 ], [ 94.883941650999986, 27.74205970800017 ], [ 94.860862732000101, 27.739479065000069 ], [ 94.8660278320001, 27.736240388000056 ], [ 94.853576661000091, 27.731620788999976 ], [ 94.848793029000035, 27.71068191500018 ], [ 94.839385986000195, 27.703540803000124 ], [ 94.821266174000186, 27.696220398000094 ], [ 94.795349122000061, 27.698078157000054 ], [ 94.790992736000192, 27.688850402000128 ], [ 94.772163391000049, 27.68396949800001 ], [ 94.755920410000158, 27.666519166000171 ], [ 94.742668151000146, 27.663421631000119 ], [ 94.720703125000114, 27.669990541000061 ], [ 94.713066102000198, 27.660261155000114 ], [ 94.698081970000089, 27.66710090800018 ], [ 94.689407348000032, 27.667190552000136 ], [ 94.68387603900004, 27.663339614000165 ], [ 94.686996459999989, 27.653310777000058 ], [ 94.682510375000163, 27.649589540000079 ], [ 94.669113159000119, 27.650278092 ], [ 94.648422242000152, 27.642070770000032 ], [ 94.639793396000073, 27.630960464000054 ], [ 94.634452820000149, 27.628770829000132 ], [ 94.624977111000135, 27.63011932500018 ], [ 94.609382630000084, 27.622631074000083 ], [ 94.591468811000198, 27.622810365000078 ], [ 94.573532105000083, 27.606969833000051 ], [ 94.546417237000128, 27.603532792000124 ], [ 94.536590577000084, 27.596990585000185 ], [ 94.526283264000199, 27.59576988300006 ], [ 94.515663147000112, 27.584730148000119 ], [ 94.509407043000124, 27.584070207000138 ], [ 94.500228881000112, 27.577310563000083 ], [ 94.479156493000062, 27.576990128000091 ], [ 94.469306947000121, 27.564012527000045 ], [ 94.459739686000148, 27.557710647000192 ], [ 94.453468322000106, 27.570940017000169 ], [ 94.436050416000114, 27.584421158000168 ], [ 94.430587768000066, 27.596460343 ], [ 94.43103790300006, 27.603080750000061 ], [ 94.420928955000136, 27.601341249000086 ], [ 94.403182983000193, 27.587190628000144 ], [ 94.387596130000077, 27.589279176000105 ], [ 94.375839234000182, 27.58457756100006 ], [ 94.367492676000097, 27.576749802000109 ], [ 94.362197875000106, 27.580230712000173 ], [ 94.355697631000169, 27.57738113400012 ], [ 94.348846435000155, 27.579450608000116 ], [ 94.345077515000014, 27.584590912000181 ], [ 94.338142395000148, 27.581039430000146 ], [ 94.329055787000073, 27.588390350000111 ], [ 94.312408447000053, 27.589651108000169 ], [ 94.298019410000109, 27.604270936000091 ], [ 94.28765869200015, 27.591791154000134 ], [ 94.276031495000097, 27.593349456999988 ], [ 94.272453307000148, 27.603469849000192 ], [ 94.25408935500019, 27.613700867999967 ], [ 94.267166137, 27.627862931000152 ], [ 94.262786865000066, 27.636020661000146 ], [ 94.255989076000105, 27.636552811000115 ], [ 94.252227782000091, 27.640930175999983 ], [ 94.247268677000193, 27.635810852000077 ], [ 94.235076904000152, 27.63251113900003 ], [ 94.217437744000165, 27.609001160000162 ], [ 94.211112976000152, 27.610841752000056 ], [ 94.213508605000186, 27.604421616000138 ], [ 94.225051879000148, 27.598510742000087 ], [ 94.221443177000197, 27.587911607000024 ], [ 94.226478576000147, 27.575630189000094 ], [ 94.240600585000038, 27.570350647000112 ], [ 94.256500245000041, 27.557428361000063 ], [ 94.256866455000136, 27.540500641000108 ], [ 94.262512207000043, 27.527429581000092 ], [ 94.259056092000037, 27.522600174000104 ], [ 94.221672058000195, 27.507030487000122 ], [ 94.212326050000172, 27.497949601000187 ], [ 94.191246031999981, 27.496320725000032 ], [ 94.174713135000104, 27.484071731000142 ], [ 94.167930602000183, 27.484188079000035 ], [ 94.157211304000043, 27.478048324000156 ], [ 94.160202027000139, 27.466470719000085 ], [ 94.117080689000034, 27.430971146000161 ], [ 94.106521607000161, 27.418050765000032 ], [ 94.086349487000177, 27.404560090000189 ], [ 94.060928345000036, 27.363559724000083 ], [ 94.000007628000105, 27.334709167000142 ], [ 94.000686645000087, 27.330139161000034 ], [ 93.990180970000097, 27.324649811000029 ], [ 93.980949402000135, 27.313768386000049 ], [ 93.956520080000132, 27.294759750000082 ], [ 93.933906556000125, 27.268341065000072 ], [ 93.901046753000116, 27.241540909000037 ], [ 93.867446899000186, 27.198841095000034 ], [ 93.839881897000112, 27.173458099000186 ], [ 93.826660155000013, 27.169370652000111 ], [ 93.807296753000173, 27.150140763000024 ], [ 93.805610656, 27.137790680000023 ], [ 93.798240661000136, 27.13716125500008 ], [ 93.800247193000075, 27.132629395000095 ], [ 93.805809021000186, 27.134750367000095 ], [ 93.813507079000146, 27.132011414000033 ], [ 93.813156128000116, 27.123760225000069 ], [ 93.825492858000189, 27.119340898000075 ], [ 93.826637269000116, 27.099380493000126 ], [ 93.836212158000137, 27.086479188000169 ], [ 93.835021972000106, 27.074991227000112 ], [ 93.828247070000145, 27.068950654000105 ], [ 93.824577332000104, 27.072170257000096 ], [ 93.818786621000129, 27.064931870000123 ], [ 93.81288147000015, 27.07068061800004 ], [ 93.804885865000188, 27.061349868000036 ], [ 93.797096252000017, 27.070882796999967 ], [ 93.791191101000038, 27.054569245000039 ], [ 93.786132813, 27.055370330000187 ], [ 93.783210754000095, 27.067190171000163 ], [ 93.777946472999986, 27.052770615999975 ], [ 93.772399903000064, 27.062301635000154 ], [ 93.77178955100004, 27.055519104000041 ], [ 93.768196106000175, 27.055519104000041 ], [ 93.768478394000056, 27.043291092000118 ], [ 93.718933105000076, 27.019220353000037 ], [ 93.705566406000173, 27.008329391000075 ], [ 93.700950622000164, 26.997102737000034 ], [ 93.675781250000057, 26.971071242999983 ], [ 93.624496460000103, 26.96421051100009 ], [ 93.584220887000015, 26.952648164000038 ], [ 93.570793153000125, 26.954122543000096 ], [ 93.525840759000062, 26.948631286000023 ], [ 93.489356995000151, 26.938529968000012 ], [ 93.486831666000171, 26.943090439000173 ], [ 93.468109131000176, 26.938890457000127 ], [ 93.4478683480001, 26.954151154000044 ], [ 93.347938538000108, 26.963241578000122 ], [ 93.222389222000061, 26.949140550000095 ], [ 93.184280396000133, 26.93873977700008 ], [ 93.108963012000117, 26.927280426000038 ], [ 93.091873169, 26.915540695000118 ], [ 93.068840027000078, 26.92420959400016 ], [ 93.019371034000187, 26.916830063000191 ], [ 92.997436523000147, 26.930349349000039 ], [ 92.91777038500004, 26.964241028000174 ], [ 92.914947510000161, 26.969760896000025 ], [ 92.916679382000098, 26.984651566000025 ], [ 92.899772644000109, 26.99626159800016 ], [ 92.872436524000136, 27.007699966000132 ], [ 92.836585999000135, 27.013549804999968 ], [ 92.785270691000107, 27.030679703000146 ], [ 92.769096374000071, 27.033041001000129 ], [ 92.713676452000072, 27.026090623000073 ], [ 92.658927918000074, 27.038520813000048 ], [ 92.650489807999975, 27.024778367000181 ], [ 92.639099122000061, 27.018539428999986 ], [ 92.644630431000053, 27.010040283000023 ], [ 92.645462035000094, 26.987449647000176 ], [ 92.585212707000039, 26.961862564000057 ], [ 92.553611756000066, 26.959070204999989 ], [ 92.505020142000035, 26.9667701730001 ], [ 92.459571839000091, 26.963310240999988 ], [ 92.44616699200003, 26.960639954000158 ], [ 92.425765991, 26.943468094000082 ], [ 92.411888123000153, 26.94419098000003 ], [ 92.399757384, 26.926271438000072 ], [ 92.353050233000033, 26.935569764000093 ], [ 92.302856446000192, 26.92420959400016 ], [ 92.303749085000049, 26.90954017700011 ], [ 92.300537110000107, 26.908140183000114 ], [ 92.276390076000041, 26.902469635000045 ], [ 92.25456237800006, 26.912229538000133 ], [ 92.194847107000044, 26.891000748000124 ], [ 92.162399292000146, 26.892660141000192 ], [ 92.124191284000176, 26.889760972000033 ], [ 92.112983704000101, 26.892383575000053 ], [ 92.120132446000071, 26.909542084000179 ], [ 92.116462707000096, 26.918415070000151 ], [ 92.118270874000075, 26.940900802999977 ], [ 92.114387512000121, 26.94753074700003 ], [ 92.114738464000197, 26.952308656000184 ], [ 92.122177124000132, 26.957937242000128 ], [ 92.11965942400019, 26.973276138000074 ], [ 92.104995727000073, 26.98173523000014 ], [ 92.107154846000128, 26.990192413000045 ], [ 92.101158142000088, 27.006792069000028 ], [ 92.093154907000041, 27.013105392000057 ], [ 92.078262329000097, 27.017684937000183 ], [ 92.077720641000042, 27.026367188000108 ], [ 92.082839966000051, 27.034643174000109 ], [ 92.081527710000159, 27.041219712000157 ], [ 92.054977418000192, 27.05139732400005 ], [ 92.043991088000155, 27.051645278000137 ], [ 92.031234741000105, 27.080415726000126 ], [ 92.030982971000071, 27.09312629700014 ], [ 92.023902892000194, 27.109489441000051 ], [ 92.032188415000121, 27.122821807999969 ], [ 92.035865783000133, 27.140010834000066 ], [ 92.026824951000094, 27.168603896000093 ], [ 92.040077210000163, 27.182264329000191 ], [ 92.050659180000139, 27.183551789000092 ], [ 92.054061890000128, 27.186969757000099 ], [ 92.059005737000177, 27.194162368999969 ], [ 92.062103272000058, 27.210880280000083 ], [ 92.068954468000072, 27.215917588000138 ], [ 92.070930481000062, 27.226175309000041 ], [ 92.070648193000181, 27.238016129000073 ], [ 92.059486389000142, 27.252033233000077 ], [ 92.03853607200017, 27.254760743000134 ], [ 92.038635255000145, 27.256950379000159 ], [ 92.045318603000112, 27.263654710000026 ], [ 92.045143127000188, 27.268886566000162 ], [ 92.059959412000126, 27.271909714 ], [ 92.066413879000095, 27.276697159000094 ], [ 92.075538634000054, 27.278194427000187 ], [ 92.08720398000014, 27.269083024000111 ], [ 92.104476928000054, 27.268022536999979 ], [ 92.11999511700003, 27.27105140700013 ], [ 92.124755860000164, 27.282365799000161 ], [ 92.116744995000033, 27.29223823500007 ], [ 92.102348328000176, 27.301391601000148 ], [ 92.089653015000181, 27.304012299000078 ], [ 92.078857422, 27.311483383999985 ], [ 92.065467835000163, 27.326309204000097 ], [ 92.061782837000067, 27.343338014000096 ], [ 92.047233582000047, 27.360872268000151 ], [ 92.049118041000099, 27.376861572000053 ], [ 92.054779054000107, 27.38275909400005 ], [ 92.055137633000072, 27.395421982000073 ], [ 92.058258057000103, 27.399980546000165 ], [ 92.043640137000182, 27.414104462000125 ], [ 92.041511535000097, 27.435289383000111 ], [ 92.035690307000152, 27.439910889000089 ], [ 92.026840210000046, 27.440345765000188 ], [ 92.022666931000174, 27.445829392000121 ], [ 92.018768311000144, 27.480323791000046 ], [ 91.997001649000026, 27.47890090900006 ], [ 91.987052918000131, 27.465917588000082 ], [ 91.977874755000016, 27.462482452000074 ], [ 91.971801758000197, 27.466297151000106 ], [ 91.959541321000131, 27.459882736000111 ], [ 91.946418761000075, 27.461940766 ], [ 91.942527771000186, 27.459896088000107 ], [ 91.934455871000068, 27.466516496000054 ], [ 91.930229187000123, 27.465490341000191 ], [ 91.923332214000084, 27.475276947000054 ], [ 91.897041320000085, 27.470912934000012 ], [ 91.881484986000089, 27.475105285999973 ], [ 91.871360779000099, 27.470764160000158 ], [ 91.865447997000047, 27.48138046300005 ], [ 91.855209350000166, 27.481977463000078 ], [ 91.848121643000184, 27.486255646000131 ], [ 91.842277526000032, 27.477220535000129 ], [ 91.828674316000047, 27.468175889000122 ], [ 91.813804627000081, 27.473594665000121 ], [ 91.797904969000115, 27.473073959000033 ], [ 91.777725219000047, 27.464879990000043 ], [ 91.767311096000185, 27.464897155000131 ], [ 91.766212464000034, 27.474445343000184 ], [ 91.752059936000194, 27.476671219000139 ], [ 91.7472229, 27.47230339000015 ], [ 91.731468201000041, 27.468921661000024 ], [ 91.717124939000087, 27.473152162000019 ], [ 91.714370727000073, 27.474721908000049 ], [ 91.717239380000194, 27.485172273000103 ], [ 91.713180542000089, 27.493572236000091 ], [ 91.694725037000126, 27.505918503000146 ], [ 91.687515259000122, 27.502923964999979 ], [ 91.683021546000191, 27.495107651000069 ], [ 91.670921326000155, 27.492998124000053 ], [ 91.658737183000198, 27.484367370000029 ], [ 91.651710511000033, 27.484342576000074 ], [ 91.646705627000188, 27.500501633000113 ], [ 91.636344909, 27.509386063000193 ], [ 91.623603822000177, 27.514316559000122 ], [ 91.61415863100018, 27.532554626000035 ], [ 91.612525940000182, 27.543352127000162 ], [ 91.593948365000074, 27.543548583000074 ], [ 91.583122253000113, 27.557044983000139 ], [ 91.58334350500013, 27.566230774000189 ], [ 91.573875427000132, 27.572879791999981 ], [ 91.566886902000192, 27.584144593000076 ], [ 91.570571899000186, 27.594749450000108 ], [ 91.580902100000174, 27.602319717000057 ], [ 91.584388734000186, 27.608903886000121 ], [ 91.566612244000169, 27.624477386000081 ], [ 91.562927246000129, 27.632642746000158 ], [ 91.573829652000143, 27.660991669000168 ], [ 91.593940734000057, 27.670909881000114 ], [ 91.597702026000036, 27.680406571 ], [ 91.605133056000113, 27.684133530999986 ], [ 91.607086182000046, 27.689107894000074 ], [ 91.628700256000172, 27.699323655000057 ], [ 91.639366150000171, 27.733140945000173 ], [ 91.634704589000194, 27.744888306000064 ], [ 91.64186096200018, 27.753124237000179 ], [ 91.645889281000109, 27.768680573000154 ], [ 91.638542174000179, 27.775436402000025 ], [ 91.634826660000101, 27.803632736000111 ], [ 91.626907349000021, 27.811569215000191 ], [ 91.609222413000168, 27.823715209000056 ], [ 91.577087402000018, 27.813360214000113 ], [ 91.562957765000078, 27.829475404000164 ], [ 91.55482482900004, 27.849945068000068 ], [ 91.560928345000036, 27.853164674000027 ], [ 91.570159912000065, 27.84855079800019 ], [ 91.574882506000051, 27.860378265000122 ], [ 91.57966613800005, 27.863275528000088 ], [ 91.590515136000135, 27.856647492000036 ], [ 91.598152161000087, 27.859909058000085 ], [ 91.607376099000135, 27.854000091000103 ], [ 91.621604920000152, 27.857692719000113 ], [ 91.641853332000039, 27.854129792000094 ], [ 91.661956787000122, 27.858240127000101 ], [ 91.669326782000041, 27.856710435000025 ], [ 91.694122314000083, 27.822130203000029 ], [ 91.709571838000159, 27.813289643000076 ], [ 91.758132935000049, 27.801298141000132 ], [ 91.771125794000113, 27.801240921000044 ], [ 91.804122926000048, 27.808889389000115 ], [ 91.810516358000086, 27.802989960000048 ], [ 91.81527709900007, 27.803379059000179 ], [ 91.8242111200002, 27.810350418000155 ], [ 91.827949525000179, 27.807550430999981 ], [ 91.833488464000084, 27.779888153000059 ], [ 91.845199585000159, 27.775659562000044 ], [ 91.860527039000033, 27.736932755000055 ], [ 91.8704376230001, 27.734460832000082 ], [ 91.878646850000109, 27.721839905000024 ], [ 91.908378601000152, 27.726310730000023 ], [ 91.918762207000043, 27.715101242000173 ], [ 91.94506073000008, 27.728691101000095 ], [ 91.955589294000106, 27.750669479000123 ], [ 91.965827943000193, 27.751440048000177 ], [ 91.983856201000037, 27.769990922000147 ], [ 92.037773132000098, 27.757200242000181 ], [ 92.05539703300019, 27.759130478000031 ], [ 92.156097412000065, 27.837020875000178 ], [ 92.20028686500018, 27.85707283000005 ], [ 92.210395813000105, 27.858989715000121 ], [ 92.246276855000076, 27.863519669000141 ], [ 92.264022826000144, 27.857931137000151 ], [ 92.284690857000044, 27.807559967000088 ], [ 92.307388306000121, 27.779239655000026 ], [ 92.315956115000176, 27.778240203000109 ], [ 92.350280761000192, 27.790660858000081 ], [ 92.379837036000083, 27.795019150000087 ], [ 92.382957459000068, 27.815570832000049 ], [ 92.406860352000081, 27.82208824300011 ], [ 92.413856507000162, 27.823040008000078 ], [ 92.443809509000118, 27.800781250000114 ], [ 92.454933167000149, 27.803262711000173 ], [ 92.501327514000195, 27.84150123500018 ], [ 92.515090943000075, 27.840219498000067 ], [ 92.54389953600014, 27.817470551000099 ], [ 92.560691833000135, 27.821041107000156 ], [ 92.585746765000181, 27.856870651000122 ], [ 92.605072022000172, 27.877508165000052 ], [ 92.669212341000048, 27.900131225000166 ], [ 92.713851930000033, 27.949279786000034 ], [ 92.739486694000107, 27.989410400999986 ], [ 92.727790833000029, 28.001480102000073 ], [ 92.709541321000188, 28.03327941900011 ], [ 92.695426941000107, 28.048370361000138 ], [ 92.681251525000164, 28.058578492000038 ], [ 92.66293334900007, 28.06277084400017 ], [ 92.661163331000182, 28.067701340000099 ], [ 92.680160523000154, 28.118009567000172 ], [ 92.686988831000065, 28.125799180000115 ], [ 92.736557006000169, 28.151550294 ], [ 92.783027649000132, 28.183740617000069 ], [ 92.799636840000119, 28.202230454000073 ], [ 92.807548523000094, 28.204078675000119 ], [ 92.81617736700008, 28.201620102000163 ], [ 92.8193206790001, 28.197410583000135 ], [ 92.817680358000189, 28.184310914000093 ], [ 92.82126617300014, 28.173919677000185 ], [ 92.826469422000173, 28.172035218000133 ], [ 92.895256043000074, 28.204610825000088 ], [ 92.905326843000068, 28.215240478000055 ], [ 92.912948609000068, 28.235019685000111 ], [ 92.922889710000049, 28.242580414000145 ], [ 92.941726685000162, 28.248649597000053 ], [ 92.964523316000111, 28.261810303000061 ], [ 92.974472045000198, 28.259620667999968 ], [ 92.985961912999983, 28.251310349000107 ], [ 92.98999023500005, 28.234422683999981 ], [ 92.994659423000201, 28.230260850000093 ], [ 93.000358581000114, 28.230791092000061 ], [ 93.033782959000064, 28.263130188000105 ], [ 93.021911621000186, 28.299930572000108 ], [ 93.023666382000158, 28.30319976800007 ], [ 93.046249391, 28.302471161000085 ], [ 93.072036744000172, 28.309259414000167 ], [ 93.095352172, 28.30707931500018 ], [ 93.112136841000108, 28.315521240000123 ], [ 93.124786376000031, 28.326799393000044 ], [ 93.154968263000171, 28.318481446000078 ], [ 93.193756103000169, 28.318040848000066 ], [ 93.206932068000071, 28.323270798000067 ], [ 93.218978882000158, 28.333730698000068 ], [ 93.222740174000137, 28.341068267000139 ], [ 93.219276429000161, 28.361499787000071 ], [ 93.222259521000069, 28.377941131999989 ], [ 93.231521607000104, 28.400711059000059 ], [ 93.225868225000056, 28.408300399999973 ], [ 93.181068421000191, 28.432741165000095 ], [ 93.182662963000155, 28.439990997000109 ], [ 93.207542419000049, 28.452228546000185 ], [ 93.235305787000186, 28.482730865000065 ], [ 93.275917053000057, 28.504829408000148 ], [ 93.288909912000122, 28.543411256000127 ], [ 93.305267333000074, 28.566259384000034 ], [ 93.297538758000144, 28.592029572000115 ], [ 93.299873353000123, 28.599550247000025 ], [ 93.327636719000111, 28.60828971900014 ], [ 93.332305908000194, 28.633680344000027 ], [ 93.336906433000081, 28.640159607000101 ], [ 93.350860595000199, 28.63889122 ], [ 93.411842347000118, 28.652900697000177 ], [ 93.429801941000164, 28.662309647000143 ], [ 93.44567108200016, 28.676040649000072 ], [ 93.456748962000177, 28.66842079200012 ], [ 93.466758728000059, 28.652120590000038 ], [ 93.474197387000117, 28.65365028400015 ], [ 93.479179383000201, 28.674980164000146 ], [ 93.491119385000104, 28.683961868999972 ], [ 93.509208680000199, 28.679840089000038 ], [ 93.518432617000144, 28.673830032000012 ], [ 93.524467467000136, 28.661279679000188 ], [ 93.533836364000024, 28.658849716000077 ], [ 93.606986999000071, 28.655878066000071 ], [ 93.620086670000092, 28.657730103000119 ], [ 93.68551635700004, 28.679340363000051 ], [ 93.699645996000015, 28.679929733000165 ], [ 93.731567382000151, 28.689279556000088 ], [ 93.775177003000181, 28.668518066000161 ], [ 93.785285949000126, 28.671409607000044 ], [ 93.818786621000129, 28.694890977000114 ], [ 93.844039917000089, 28.70738983200016 ], [ 93.865272522000168, 28.703712463000102 ], [ 93.904129028000114, 28.676660538000135 ], [ 93.919601440000122, 28.670379637999986 ], [ 93.926132202000076, 28.671800615000052 ], [ 93.93456268400007, 28.677099227999975 ], [ 93.95697021400008, 28.704679490000103 ], [ 93.965553284000066, 28.723239898000145 ], [ 93.965110778000053, 28.74299049300015 ], [ 93.968505860000107, 28.751382829000136 ], [ 94.001426697000056, 28.775539398000035 ], [ 94.001632690000122, 28.784280778000152 ], [ 93.985267640000188, 28.798290252000186 ], [ 93.985572814000193, 28.806770325000116 ], [ 93.999977112000067, 28.819770814000094 ], [ 93.994911194000167, 28.841369628000166 ], [ 94.014808654000149, 28.851181030000191 ], [ 94.030067444000053, 28.853450775000113 ], [ 94.043998717000136, 28.87383079500006 ], [ 94.066535950000116, 28.89608955500006 ], [ 94.155136108000079, 28.954761504000089 ], [ 94.158317566000051, 28.97406005900018 ], [ 94.166770935000045, 28.981161119000092 ], [ 94.172943115000066, 28.99182128800004 ], [ 94.171958923000147, 29.00776291000011 ], [ 94.17520904600002, 29.020490647000145 ], [ 94.214691163000168, 29.084089279000182 ], [ 94.257682800000055, 29.116790772000115 ], [ 94.287727356000119, 29.148149491000083 ], [ 94.356925963000037, 29.152589799000111 ], [ 94.363700866000045, 29.157220841000139 ], [ 94.367630005000137, 29.16633987400013 ], [ 94.372276305000184, 29.190229416000022 ], [ 94.413879394000105, 29.212690353000141 ], [ 94.431182861000195, 29.226821900000118 ], [ 94.494461060000106, 29.216672897000137 ], [ 94.53306579700012, 29.218719483000029 ], [ 94.557899476000046, 29.228910446000043 ], [ 94.572082520000095, 29.250570298000071 ], [ 94.573890685000094, 29.275171281000098 ], [ 94.5777587890002, 29.280769348000092 ], [ 94.605369568000071, 29.296989441000051 ], [ 94.61900329600013, 29.312799454000128 ], [ 94.623542786000201, 29.345590591000189 ], [ 94.628158570000039, 29.348590851000097 ], [ 94.641456604000041, 29.346920013000044 ], [ 94.677246093000178, 29.327840806000154 ], [ 94.711051940000118, 29.304340363000051 ], [ 94.777381898000101, 29.241119385000104 ], [ 94.790840149000132, 29.226190568000106 ], [ 94.797897339000144, 29.209989549000113 ], [ 94.792869568000071, 29.180360793000034 ], [ 94.792922974000021, 29.169740678000153 ], [ 94.797988891000045, 29.164609910000024 ], [ 94.809486390000075, 29.166709901000104 ], [ 94.84658813600015, 29.18299102900005 ], [ 94.871803285000055, 29.184289932000127 ], [ 94.918800355000144, 29.162300109000114 ], [ 94.967689513000153, 29.159751892000031 ], [ 94.995101928000111, 29.140960694000114 ], [ 95.022796630000073, 29.13062095700019 ], [ 95.025672913000108, 29.133590699000024 ], [ 95.018226624000135, 29.142959595000036 ], [ 94.986686706000171, 29.173538208000139 ], [ 94.997497558000077, 29.173011781000184 ], [ 95.039741517000095, 29.152421951000122 ], [ 95.098396301000037, 29.143800735000184 ], [ 95.113533020000034, 29.121200561000023 ], [ 95.121757508000201, 29.116250992000175 ], [ 95.145927430000199, 29.115610124000114 ], [ 95.177520753000067, 29.108579637000048 ], [ 95.196647644000166, 29.107580185000131 ], [ 95.250762940000186, 29.109880448000126 ], [ 95.247856139000135, 29.093772888 ], [ 95.251373291000164, 29.085739137000076 ], [ 95.25010681200007, 29.068571090000091 ], [ 95.266555785000151, 29.057649613000137 ], [ 95.302749634000122, 29.062919617000091 ], [ 95.345489502000078, 29.046110152000097 ], [ 95.384635926000044, 29.038040162000073 ], [ 95.410133361000021, 29.034120560000133 ], [ 95.421546936000198, 29.041210175000117 ], [ 95.429359436000198, 29.041280746000155 ], [ 95.447425843000133, 29.036012649000099 ], [ 95.454338074000134, 29.036991120000152 ], [ 95.464859008000019, 29.054611206000175 ], [ 95.485893250000117, 29.076250077000111 ], [ 95.496330262000185, 29.140310289000183 ], [ 95.503532410000162, 29.14299011200012 ], [ 95.546806335000156, 29.128650665 ], [ 95.545318603000112, 29.180580139000028 ], [ 95.537719727000081, 29.214000702000135 ], [ 95.585800170000198, 29.217992783999989 ], [ 95.587631226000155, 29.242372514000124 ], [ 95.598731996000083, 29.261861802000112 ], [ 95.605102539000086, 29.262470246000191 ], [ 95.631217956000171, 29.249048234000043 ], [ 95.638023377000081, 29.249839784000187 ], [ 95.642883300000108, 29.256029129000069 ], [ 95.683151244000157, 29.277280807000011 ], [ 95.701896667000142, 29.300420761000055 ], [ 95.715171814000144, 29.298299789999987 ], [ 95.727050781000059, 29.302469255000119 ], [ 95.743499757000166, 29.316249848000155 ], [ 95.745407104000151, 29.329120635999971 ], [ 95.777626038000164, 29.356399537000129 ], [ 95.783096313000101, 29.35638046400004 ], [ 95.791023254000038, 29.337898254999971 ], [ 95.796485900000107, 29.336330414000031 ], [ 95.826812744000108, 29.355710983000165 ], [ 95.840301513000156, 29.353742600000089 ], [ 95.8482589730001, 29.358659745000068 ], [ 95.880851746000019, 29.391490936000025 ], [ 95.957107544000053, 29.38266754100016 ], [ 95.987190246000068, 29.406871794999972 ], [ 96.002487183000142, 29.412071228000059 ], [ 96.034721374000128, 29.442989350000119 ], [ 96.055603027000075, 29.458410262000086 ], [ 96.06945037800017, 29.462272643000176 ], [ 96.087188720000029, 29.461610795000126 ], [ 96.113197326000147, 29.427509309000129 ], [ 96.149986267000031, 29.399259568000161 ], [ 96.157775879000042, 29.383100511000123 ], [ 96.175247193000018, 29.364530563000187 ], [ 96.185783387000129, 29.344480514000054 ], [ 96.183082581000178, 29.309251785000129 ], [ 96.20323944, 29.293619155000044 ], [ 96.210052489000191, 29.27486038100011 ], [ 96.22619628800004, 29.259809494000137 ], [ 96.234169007000048, 29.243459702000052 ], [ 96.243568420000145, 29.235122682000167 ], [ 96.292999268000187, 29.235788345000117 ], [ 96.312606812000183, 29.259099960000071 ], [ 96.345336914000029, 29.267351152000117 ], [ 96.363151551000101, 29.285631181000099 ], [ 96.374977112000067, 29.283729554000047 ], [ 96.392807008000034, 29.256500244000051 ], [ 96.38771057200006, 29.233711243000187 ], [ 96.37136840800008, 29.218030931000044 ], [ 96.358497620000094, 29.181629180000073 ], [ 96.346359254000106, 29.171030046000055 ], [ 96.307640075, 29.168390275000093 ], [ 96.290580750000117, 29.162147522 ], [ 96.260200501000043, 29.160160064000081 ], [ 96.248901367000087, 29.150171281000041 ], [ 96.227760314000136, 29.146379470999989 ], [ 96.217498778000163, 29.138099670000145 ], [ 96.200332641000102, 29.10593032800017 ], [ 96.185623169000053, 29.094619750999982 ], [ 96.169502259000069, 29.087631225000166 ], [ 96.114501954000048, 29.077602388000173 ], [ 96.15039062600016, 29.053140641000084 ], [ 96.160842896000077, 29.036510467000085 ], [ 96.168830872, 29.01288032500014 ], [ 96.180229187000123, 28.999410629000181 ], [ 96.184852601000046, 28.988119125000082 ], [ 96.180442809000056, 28.968540192000034 ], [ 96.155166625000163, 28.955602646000045 ], [ 96.154060363000099, 28.946510315000126 ], [ 96.145248413000047, 28.937488557000052 ], [ 96.162979126000096, 28.922060012000088 ], [ 96.166526795000095, 28.905929566 ], [ 96.174728394, 28.904260635000071 ], [ 96.185997010000165, 28.912010193000185 ], [ 96.228149415000075, 28.929330825000136 ], [ 96.248298644000045, 28.942840576000151 ], [ 96.255653381000059, 28.959251404000156 ], [ 96.293701172000169, 28.998729707000109 ], [ 96.321533203000058, 29.012769700000149 ], [ 96.346702575000165, 29.032268524000187 ], [ 96.435791015, 29.03758812000018 ], [ 96.458892822000053, 29.04582977400014 ], [ 96.477157593000186, 29.060140610000133 ], [ 96.525199890000181, 29.07928085400016 ], [ 96.477401734000068, 28.994039535000184 ], [ 96.487525939000079, 28.965339660000097 ], [ 96.493247985000153, 28.962320328000033 ], [ 96.518829346000132, 28.970989227000075 ], [ 96.523666382000158, 28.948009490000061 ], [ 96.538726806000113, 28.920982361000029 ], [ 96.537452698000038, 28.884120941000106 ], [ 96.546867370000086, 28.874500276000163 ], [ 96.575859071000195, 28.830490113000167 ], [ 96.603836059000059, 28.804420472000118 ], [ 96.615997314000083, 28.778579711000134 ], [ 96.613616943000181, 28.759798051000075 ], [ 96.585937500000171, 28.721588135000161 ], [ 96.560012818000075, 28.71186256500016 ], [ 96.522369384000115, 28.708980560000157 ], [ 96.490570069000114, 28.688497544000029 ], [ 96.472740174000194, 28.68820953400018 ], [ 96.470542908000084, 28.684551240000189 ], [ 96.495162964000031, 28.643760681000117 ], [ 96.494056702000194, 28.638191223000092 ], [ 96.444442750000064, 28.605989455999975 ], [ 96.428070068000068, 28.587141038000084 ], [ 96.422500610000043, 28.585029602000191 ], [ 96.407356262000178, 28.594432832000166 ], [ 96.400917053000057, 28.594310761000145 ], [ 96.399940490000176, 28.590440750000084 ], [ 96.406150818000128, 28.577890397000033 ], [ 96.40660858200016, 28.564041138000164 ], [ 96.370796204000158, 28.564151762999984 ], [ 96.35460662800017, 28.560590744000137 ], [ 96.343246461000035, 28.551059722000048 ], [ 96.334815978000165, 28.538530350000087 ], [ 96.325675965000187, 28.53400993300005 ], [ 96.324302673000034, 28.530340196000111 ], [ 96.36660766500006, 28.504728318000161 ], [ 96.371711732000051, 28.496770858000048 ], [ 96.37296295100009, 28.487039567000011 ], [ 96.366958619000172, 28.479530335000106 ], [ 96.341369628000052, 28.470020295000154 ], [ 96.323860167000021, 28.455049515000098 ], [ 96.274482726000087, 28.424011231000065 ], [ 96.263771057000099, 28.413379670000154 ], [ 96.267402649000189, 28.410209657000166 ], [ 96.304641724000192, 28.404720307000161 ], [ 96.315322877000142, 28.388420103999977 ], [ 96.319877621000046, 28.38615989900012 ], [ 96.370941159000154, 28.394300459000078 ], [ 96.380012509000039, 28.364091869000106 ], [ 96.392150880000088, 28.362649918000102 ], [ 96.399406432000035, 28.344499590000055 ], [ 96.4228591910001, 28.350971221000066 ], [ 96.431999211000175, 28.391731259000153 ], [ 96.45826721100002, 28.419221879000077 ], [ 96.479988098000035, 28.424610139000038 ], [ 96.496726990000127, 28.423559190000049 ], [ 96.510261539000112, 28.418308259000185 ], [ 96.533859251000194, 28.434640880000188 ], [ 96.551132199999984, 28.442222599000161 ], [ 96.559532170000125, 28.453029629000127 ], [ 96.579589839000107, 28.463092801000187 ], [ 96.598663329000146, 28.466230390000192 ], [ 96.664566040000182, 28.465770721000069 ], [ 96.68144989100017, 28.451202391000095 ], [ 96.706199648000052, 28.437469482000097 ], [ 96.733985901000096, 28.430789949000143 ], [ 96.751052857000161, 28.421712878000051 ], [ 96.763160707000111, 28.404218672000127 ], [ 96.774375918000032, 28.374071121000156 ], [ 96.782577513000149, 28.37038993800013 ], [ 96.811569210000016, 28.368101121000052 ], [ 96.852218628, 28.36836052100017 ], [ 96.862487792000081, 28.378309250000086 ], [ 96.898666380000179, 28.385900500000048 ], [ 96.919960020000019, 28.363349910000125 ], [ 96.920898439000155, 28.352188111000032 ], [ 96.925903321000192, 28.345029830000044 ], [ 96.95276642000016, 28.339950560000091 ], [ 96.974060060000056, 28.323690413000065 ], [ 96.986991881000051, 28.322191240000109 ], [ 96.996498109000186, 28.316230771000107 ], [ 97.022689819000163, 28.326259611000182 ], [ 97.036369323000088, 28.338672639000151 ], [ 97.045326232000036, 28.354110720000051 ], [ 97.051818849000142, 28.358068468000113 ], [ 97.066131590000168, 28.359510421000152 ], [ 97.092567439000163, 28.369691850000095 ], [ 97.112792969000111, 28.35890960800009 ], [ 97.125938419000136, 28.356220249000046 ], [ 97.151992800000187, 28.33403015000016 ], [ 97.158805848999975, 28.326940539000191 ], [ 97.169372560000056, 28.302251818000173 ], [ 97.17391968000004, 28.299060821000182 ], [ 97.192596439000056, 28.294401170000015 ], [ 97.224243160000071, 28.29989052000019 ], [ 97.234191891000137, 28.280790330000059 ], [ 97.241241457000058, 28.275131229000181 ], [ 97.268127440000171, 28.278261180000072 ], [ 97.282066347000182, 28.276260376999971 ], [ 97.306327820000035, 28.263967512000136 ], [ 97.313041689000158, 28.251831053000046 ], [ 97.32737731900005, 28.25082016000016 ], [ 97.351356507000105, 28.234300612000027 ], [ 97.364990232000082, 28.23159027000014 ], [ 97.374656679000054, 28.225601198 ], [ 97.400566101000152, 28.200500490000081 ], [ 97.400421140000105, 28.193510061000154 ], [ 97.392227171000116, 28.191200261000176 ], [ 97.37201691000007, 28.200399400000094 ], [ 97.363571169000181, 28.196468352000068 ], [ 97.359230039000181, 28.188449860000105 ], [ 97.330802921000156, 28.162971500000026 ], [ 97.324699400999975, 28.148229600000093 ], [ 97.340026858000158, 28.124549868000145 ], [ 97.339012148000052, 28.119541169000058 ], [ 97.310211180000181, 28.093250273000024 ], [ 97.307746889000157, 28.077100753000025 ], [ 97.311790470000119, 28.069950103000053 ], [ 97.331672670000103, 28.065362930000049 ], [ 97.373519898000097, 28.070238110000162 ], [ 97.373992921000024, 28.062591551000139 ], [ 97.367973328000176, 28.052429199000073 ], [ 97.377067569000076, 28.039091111000118 ], [ 97.382186890000071, 28.040189741000063 ], [ 97.3985672, 28.034111021000172 ], [ 97.415161130000058, 28.024080278000042 ], [ 97.411628721999989, 28.015140532000032 ], [ 97.39121246100018, 28.011930468000173 ], [ 97.378067019000184, 27.986150741000131 ], [ 97.375617980000129, 27.944389342000079 ], [ 97.387657168000089, 27.930730821000168 ], [ 97.387687681000045, 27.926599501000112 ], [ 97.378562929000168, 27.918010711000193 ], [ 97.389022829000169, 27.896379472000149 ], [ 97.364799500000117, 27.885129929000072 ], [ 97.343521120000048, 27.894060133000039 ], [ 97.321166991000098, 27.889511110000115 ], [ 97.32393646100013, 27.911859512000035 ], [ 97.308708191000107, 27.929960250000079 ], [ 97.256477358000097, 27.909530640000128 ], [ 97.247200012000064, 27.903909682000062 ], [ 97.23677063000008, 27.889938353000048 ], [ 97.202560423000023, 27.864402771000186 ], [ 97.186981200000048, 27.845899581000083 ], [ 97.167808532000151, 27.836259840000025 ], [ 97.168678281000098, 27.830860141000073 ], [ 97.160346983000125, 27.822591782000131 ], [ 97.137351989000194, 27.815061571000115 ], [ 97.133941650000168, 27.806470871000045 ], [ 97.124282839000102, 27.798500059999981 ], [ 97.102462769, 27.793420790000027 ], [ 97.09839630099998, 27.788570403000051 ], [ 97.104766847000064, 27.775188447000062 ], [ 97.096420289000093, 27.749929431000169 ], [ 97.091423033000183, 27.748460770000065 ], [ 97.067543030000081, 27.759721758000126 ], [ 97.048080439999978, 27.749338151000075 ], [ 97.037361144000045, 27.752161026000181 ], [ 97.028572082000039, 27.749120713000025 ], [ 97.015747071000192, 27.740631103000169 ], [ 97.003227234000178, 27.710470200000145 ], [ 96.984848023000097, 27.690990447000161 ], [ 96.978302002000191, 27.671873094000148 ], [ 96.958656311000141, 27.674280167000063 ], [ 96.942321778000178, 27.667449952000084 ], [ 96.93887329100005, 27.660739900000181 ], [ 96.928962706999982, 27.656032562000064 ], [ 96.927009583000029, 27.641901017000123 ], [ 96.919448853000119, 27.631450653000172 ], [ 96.89758300900013, 27.62080192600007 ], [ 96.899223328000062, 27.593629837000094 ], [ 96.90299987800006, 27.589899063000132 ], [ 96.914031981999983, 27.588430404000064 ], [ 96.915809631000116, 27.558282851000058 ], [ 96.92453765900018, 27.551259995000066 ], [ 96.937683106000065, 27.530059814000026 ], [ 96.933502197000109, 27.515710830999978 ], [ 96.913856506000059, 27.488412857000185 ], [ 96.911216735000039, 27.481521607 ], [ 96.911849975000052, 27.462709428000039 ], [ 96.93334198000008, 27.45051193300003 ], [ 96.941390992000095, 27.42695045500011 ], [ 96.948890686000141, 27.42094040000012 ], [ 96.96552276500006, 27.415359497000111 ], [ 96.968933105000133, 27.401821137000127 ], [ 96.975540162000129, 27.396001817000183 ], [ 96.969009399000072, 27.386270523000064 ], [ 96.971740722000163, 27.378950120000184 ], [ 96.981979371000079, 27.373710632000098 ], [ 96.985046387000182, 27.362609864000035 ], [ 96.997467042000153, 27.355100633000177 ], [ 97.003341675000115, 27.329940796000017 ], [ 97.040328980000083, 27.307859421000103 ], [ 97.043586731000062, 27.289751053000145 ], [ 97.056671143000187, 27.285640718000138 ], [ 97.063316345000032, 27.272249223000131 ], [ 97.08184051600017, 27.253868104000105 ], [ 97.0940780640002, 27.247890472000051 ], [ 97.095146179000039, 27.22142982400004 ], [ 97.100502015000131, 27.214979172000085 ], [ 97.116699219000054, 27.209220887000185 ], [ 97.123901367000144, 27.199871064000092 ], [ 97.127296448000152, 27.18517112700016 ], [ 97.140312195000149, 27.177469254000187 ], [ 97.149917603000176, 27.178340912000181 ], [ 97.155998230000137, 27.162179948000073 ], [ 97.167205811000088, 27.155479431000174 ], [ 97.172157288000051, 27.144359590000192 ], [ 97.171737671000074, 27.136810304000107 ], [ 97.155906677000075, 27.126380920000145 ], [ 97.146430970000097, 27.102840424000135 ], [ 97.130989074000126, 27.103740692000031 ], [ 97.114692688000048, 27.119930268000189 ], [ 97.108558655000081, 27.121259690000045 ], [ 97.071517944000163, 27.109170914000117 ], [ 97.062683105000019, 27.111160279000103 ], [ 97.052581787, 27.118930816000102 ], [ 97.030220032000159, 27.141740800000036 ], [ 96.999000549000129, 27.153949737000062 ], [ 96.984657287000175, 27.166709900000058 ], [ 96.963729859000182, 27.172590256000092 ], [ 96.91841125500008, 27.175489426000127 ], [ 96.87563324000007, 27.193559648000132 ], [ 96.86622619700006, 27.199689865000096 ], [ 96.863372803, 27.219240189000175 ], [ 96.866256714000144, 27.223619462000045 ], [ 96.890007019000166, 27.23686981200018 ], [ 96.892692565000175, 27.247631074000083 ], [ 96.887039185000106, 27.254730225000117 ], [ 96.88877868600008, 27.263599395000142 ], [ 96.885101319000171, 27.267959594000047 ], [ 96.875076294000166, 27.267160417000071 ], [ 96.861717223000198, 27.272510528000169 ], [ 96.855667115000188, 27.280309678000151 ], [ 96.84974670500003, 27.306280137000158 ], [ 96.836257935000049, 27.310541152000042 ], [ 96.824867249000135, 27.320470810000018 ], [ 96.802360534000172, 27.354431152000075 ], [ 96.772956849000082, 27.364959717000033 ], [ 96.740692139000032, 27.364459991000047 ], [ 96.712547303000122, 27.380729675999987 ], [ 96.699096680000196, 27.365560533000178 ], [ 96.670158387000072, 27.372301101000119 ], [ 96.646118163000153, 27.367830277000053 ], [ 96.620483399000079, 27.372819901000071 ], [ 96.612541199000191, 27.369369507000044 ], [ 96.598297120000154, 27.356451034000088 ], [ 96.600807190000182, 27.344631195000034 ], [ 96.575439453000115, 27.329191209000101 ], [ 96.561828613000159, 27.325252534000072 ], [ 96.530746459, 27.298049927000079 ], [ 96.522331238000163, 27.29397010800011 ], [ 96.505386353000119, 27.307600022000031 ], [ 96.500030517000198, 27.30936050400004 ], [ 96.486030578999987, 27.305231094000135 ], [ 96.470748901000036, 27.312461852000126 ], [ 96.461585998000089, 27.309110642000121 ], [ 96.433486939000147, 27.30994033900015 ], [ 96.41609191900011, 27.299892426000042 ], [ 96.391571045000035, 27.294580459000088 ], [ 96.364120484000068, 27.300161361000164 ], [ 96.361518859, 27.29405975300017 ], [ 96.347717285000101, 27.288391114000149 ], [ 96.335746764000078, 27.295940400000063 ], [ 96.310836792000089, 27.302040101000159 ], [ 96.290428161000193, 27.294071198000097 ], [ 96.278656006000062, 27.279382707000082 ], [ 96.26743316600016, 27.277839660000041 ], [ 96.234329224000078, 27.284879685000135 ], [ 96.218109132000052, 27.269580841000163 ], [ 96.196327209000174, 27.265190125000117 ], [ 96.182098389000089, 27.254249572000049 ], [ 96.163688659000059, 27.254480363000027 ], [ 96.114501954000048, 27.233310701000107 ], [ 96.099021912000183, 27.231409074000055 ], [ 96.092132569000114, 27.226671220000128 ], [ 96.086387634, 27.217050554000082 ], [ 96.068977356000119, 27.213190078000025 ], [ 96.057281493000062, 27.202791213000182 ], [ 96.036430359, 27.196050645000071 ], [ 96.029792785000097, 27.187789918000021 ], [ 96.016937255000073, 27.154790879000018 ], [ 95.979187011000192, 27.110729217000141 ], [ 95.957122802000072, 27.068220140000051 ], [ 95.936248779000152, 27.052991866000184 ], [ 95.915809631000116, 27.04532051200016 ], [ 95.900688170000137, 27.031780241999968 ], [ 95.877136231000179, 27.020498276000183 ], [ 95.857772827000133, 27.022359848000178 ], [ 95.83796691900011, 27.01531028800008 ], [ 95.815299989000096, 27.022220612000012 ], [ 95.807937622000111, 27.020450591000042 ], [ 95.804862975000049, 27.011999130000049 ], [ 95.779647828000122, 26.989990234000118 ], [ 95.760879516000102, 26.96398925800014 ], [ 95.76368713300019, 26.944980622000173 ], [ 95.756736755000077, 26.940219879000153 ], [ 95.752548218000186, 26.930231094000135 ], [ 95.758132935000162, 26.914899825000191 ], [ 95.754997253000056, 26.907888412000148 ], [ 95.730812073000038, 26.887491226000179 ], [ 95.721130371000129, 26.883630753000091 ], [ 95.711563110000156, 26.884380340000178 ], [ 95.703491209999981, 26.887189865000039 ], [ 95.692276002000199, 26.899919511000064 ], [ 95.673362733000033, 26.910221101000161 ], [ 95.668197631000055, 26.908340455000143 ], [ 95.657775880000088, 26.898080827000172 ], [ 95.65099334700011, 26.883848190000037 ], [ 95.636756897000112, 26.879289627000048 ], [ 95.632232666000107, 26.849479675000055 ], [ 95.611518860000103, 26.821212768000066 ], [ 95.574752807000152, 26.825670242000115 ], [ 95.562698365000188, 26.837209702000109 ], [ 95.554756165000128, 26.839569093000023 ], [ 95.532775880000031, 26.831209183 ], [ 95.525001526000153, 26.819948196000041 ], [ 95.514801025, 26.81319999700014 ], [ 95.502151490000131, 26.782739640000045 ], [ 95.489143371000182, 26.761671067 ], [ 95.48348999100017, 26.754989624000075 ], [ 95.465660095000146, 26.750410080000051 ], [ 95.454162599000085, 26.732479095000144 ], [ 95.441963195000199, 26.722841263000134 ], [ 95.428855896000073, 26.700040817000115 ], [ 95.423309326000151, 26.696712494000167 ], [ 95.406433105000133, 26.696620942000038 ], [ 95.365867614000081, 26.677589416999979 ], [ 95.346649171000195, 26.677940369000112 ], [ 95.317886353000119, 26.666839599000184 ], [ 95.302581786000133, 26.656021119000116 ], [ 95.293136596000011, 26.661230088000082 ], [ 95.272026062, 26.662820816000078 ], [ 95.2620468140002, 26.673650743000053 ], [ 95.260032654000156, 26.686351776000151 ], [ 95.250785829000051, 26.692390441000043 ], [ 95.243957519000105, 26.693901062000066 ], [ 95.237632752000025, 26.686290740000061 ], [ 95.233695983000189, 26.697099687000104 ], [ 95.236106872999983, 26.712209702000052 ], [ 95.2161407480001, 26.735319138000023 ], [ 95.220977782000091, 26.747430803000043 ], [ 95.22010040300006, 26.759820938000132 ], [ 95.233177186000148, 26.771930696000084 ], [ 95.231636047000109, 26.777692796000053 ], [ 95.244918824000194, 26.78733062800012 ], [ 95.221572875000049, 26.793540956000015 ], [ 95.21511840800008, 26.798379898 ], [ 95.206840515000181, 26.811691284000062 ], [ 95.199043274000132, 26.839929580000103 ], [ 95.208602905000191, 26.850719453000124 ], [ 95.195610046000127, 26.849620819000165 ], [ 95.185768127000131, 26.859630585000048 ], [ 95.184501648000094, 26.864830017000031 ], [ 95.206428528000117, 26.877870560000133 ], [ 95.212852479000048, 26.885602952000113 ], [ 95.22992706399998, 26.88566970800008 ], [ 95.233856201000094, 26.89084053 ], [ 95.231323242000087, 26.898349762000123 ], [ 95.23396301300005, 26.920600892000039 ], [ 95.225563049000129, 26.934429168000179 ], [ 95.217056273000082, 26.934200287000181 ], [ 95.214447021000183, 26.936950684000124 ], [ 95.209236144000101, 26.956670760000179 ], [ 95.213417053000057, 26.958789827000089 ], [ 95.206756590999987, 26.962591172000089 ], [ 95.215042114000141, 26.970371247000173 ], [ 95.205223084000068, 26.982170105000137 ], [ 95.209960938, 26.982629776000067 ], [ 95.195198059000063, 26.989990234000118 ], [ 95.200080873000104, 27.006229400000109 ], [ 95.195518494000169, 27.042949676000092 ], [ 95.203796387000011, 27.043001175000029 ], [ 95.207687377000127, 27.03478050300015 ], [ 95.213806153000121, 27.033479692000071 ], [ 95.222633362000124, 27.04089164700008 ], [ 95.229469300000119, 27.04017067000018 ], [ 95.230911255000194, 27.045709610000188 ], [ 95.237876891999974, 27.043220521000023 ], [ 95.248229981000122, 27.030252458000064 ], [ 95.277626037000175, 27.049770355000192 ], [ 95.277832031000173, 27.056768418000047 ], [ 95.309677124000075, 27.081130982000161 ], [ 95.31317901500006, 27.086740495000015 ], [ 95.366470337000123, 27.112850189000142 ], [ 95.371269227000141, 27.111400605000085 ], [ 95.368301391000102, 27.107362747000138 ], [ 95.373657226000091, 27.107999801000119 ] ] ] } }
]
}
