{
"type": "FeatureCollection",
"name": "outside_mask",
"crs": { "type": "name", "properties": { "name": "urn:ogc:def:crs:OGC:1.3:CRS84" } },
"features": [
{ "type": "Feature", "properties": { }, "geometry": { "type": "Polygon", "coordinates": [ [ [ 87.451777301128899, 22.602543114245329 ], [ 87.451777301128899, 33.559713977490979 ], [ 101.536629717690005, 33.559713977490979 ], [ 101.536629717690005, 22.602543114245329 ], [ 87.451777301128899, 22.602543114245329 ] ], [ [ 91.5650208, 27.6258079 ], [ 91.5844848, 27.6084378 ], [ 91.5714453, 27.5963026 ], [ 91.5659726, 27.5841435 ], [ 91.5722305, 27.5793846 ], [ 91.5741579, 27.5722224 ], [ 91.5831999, 27.5657265 ], [ 91.5819625, 27.5570177 ], [ 91.5963821, 27.5411943 ], [ 91.6124672, 27.5436689 ], [ 91.6139852, 27.5332965 ], [ 91.6238284, 27.513886 ], [ 91.6469791, 27.5004037 ], [ 91.651964, 27.4833721 ], [ 91.6598815, 27.484622 ], [ 91.6706677, 27.4924666 ], [ 91.6819988, 27.4936923 ], [ 91.6854308, 27.5003928 ], [ 91.6945283, 27.5055681 ], [ 91.7066765, 27.4980776 ], [ 91.7178234, 27.4983493 ], [ 91.7147529, 27.4746371 ], [ 91.7316637, 27.4694463 ], [ 91.7578628, 27.4753452 ], [ 91.7663182, 27.4736791 ], [ 91.7661099, 27.4671814 ], [ 91.7741904, 27.465432 ], [ 91.8063033, 27.4755768 ], [ 91.8283609, 27.4681767 ], [ 91.8433753, 27.4773376 ], [ 91.8494905, 27.4863796 ], [ 91.8556771, 27.4815969 ], [ 91.862411, 27.4847616 ], [ 91.8689545, 27.4788843 ], [ 91.8722381, 27.470342 ], [ 91.884064, 27.4748154 ], [ 91.8988881, 27.4706752 ], [ 91.9232538, 27.4740778 ], [ 91.9310346, 27.4652024 ], [ 91.935627, 27.4659876 ], [ 91.943503, 27.4598248 ], [ 91.9611348, 27.4601579 ], [ 91.9722707, 27.4663921 ], [ 91.9788142, 27.4632037 ], [ 91.9888793, 27.4673439 ], [ 91.9945186, 27.4782894 ], [ 92.0069156, 27.475672 ], [ 92.0177422, 27.4799551 ], [ 92.0228342, 27.462466 ], [ 92.0224773, 27.4465712 ], [ 92.0267841, 27.4403132 ], [ 92.0421078, 27.4359112 ], [ 92.0440114, 27.4265362 ], [ 92.0371348, 27.4182556 ], [ 92.0433214, 27.4153289 ], [ 92.0561467, 27.3999338 ], [ 92.0543421, 27.382438 ], [ 92.0483708, 27.3759022 ], [ 92.0476854, 27.3622512 ], [ 92.052338, 27.35253 ], [ 92.0625525, 27.342058 ], [ 92.0649877, 27.327373 ], [ 92.0785752, 27.3122279 ], [ 92.0884755, 27.304895 ], [ 92.0995025, 27.3029649 ], [ 92.112709, 27.2952626 ], [ 92.1252136, 27.2818898 ], [ 92.1195247, 27.2708906 ], [ 92.1037507, 27.2680091 ], [ 92.0870255, 27.2694222 ], [ 92.0753059, 27.2785744 ], [ 92.0671881, 27.277069 ], [ 92.0615545, 27.2719434 ], [ 92.046741, 27.2692744 ], [ 92.037693, 27.2584847 ], [ 92.038621, 27.2549393 ], [ 92.0593461, 27.2520899 ], [ 92.0616304, 27.24513 ], [ 92.0713029, 27.238063 ], [ 92.0712315, 27.2284618 ], [ 92.0682385, 27.2140253 ], [ 92.0616319, 27.2101162 ], [ 92.0569226, 27.1882845 ], [ 92.0364373, 27.1803888 ], [ 92.0269266, 27.1685743 ], [ 92.0282883, 27.1562934 ], [ 92.0334524, 27.1490739 ], [ 92.0359703, 27.1372554 ], [ 92.0334524, 27.1272611 ], [ 92.0230984, 27.1102014 ], [ 92.0302923, 27.099873 ], [ 92.0311915, 27.0800385 ], [ 92.0381284, 27.0693762 ], [ 92.0365612, 27.0633899 ], [ 92.0447057, 27.0519825 ], [ 92.0533897, 27.0515971 ], [ 92.0817027, 27.0405751 ], [ 92.0779516, 27.0179659 ], [ 92.0928788, 27.0129815 ], [ 92.103387, 27.0040149 ], [ 92.1076519, 26.989062 ], [ 92.1046716, 26.9871607 ], [ 92.1052625, 26.980378 ], [ 92.1199585, 26.9715912 ], [ 92.1213459, 26.9606719 ], [ 92.1127904, 26.9509088 ], [ 92.1185198, 26.9422762 ], [ 92.1148972, 26.9339262 ], [ 92.1168498, 26.9291731 ], [ 92.1142805, 26.9164811 ], [ 92.119139, 26.9080003 ], [ 92.1150285, 26.8945174 ], [ 92.1950438, 26.8911555 ], [ 92.2543633, 26.912118 ], [ 92.2762179, 26.9023058 ], [ 92.3038706, 26.9094419 ], [ 92.3029786, 26.9241603 ], [ 92.3529319, 26.9357566 ], [ 92.3997631, 26.9263904 ], [ 92.4118054, 26.9442308 ], [ 92.4256317, 26.9433388 ], [ 92.4461483, 26.9607333 ], [ 92.4595286, 26.9634093 ], [ 92.5853038, 26.9620713 ], [ 92.6455154, 26.9874939 ], [ 92.6392712, 27.0187147 ], [ 92.6588957, 27.0383392 ], [ 92.7021588, 27.027635 ], [ 92.7690605, 27.0329871 ], [ 92.8725352, 27.0075645 ], [ 92.9166903, 26.9848179 ], [ 92.9175823, 26.9643013 ], [ 93.0192729, 26.9170241 ], [ 93.0618279, 26.923395 ], [ 93.0919728, 26.9156861 ], [ 93.1089212, 26.9272824 ], [ 93.2668093, 26.9558271 ], [ 93.3272124, 26.9611143 ], [ 93.3908005, 26.9598412 ], [ 93.4500357, 26.9513653 ], [ 93.4620666, 26.9402823 ], [ 93.4710788, 26.9369156 ], [ 93.4866929, 26.9428928 ], [ 93.489369, 26.9384327 ], [ 93.5362243, 26.9492726 ], [ 93.5877226, 26.9516063 ], [ 93.6166905, 26.9611694 ], [ 93.6587904, 26.9673659 ], [ 93.6738706, 26.973229 ], [ 93.6942815, 26.9893186 ], [ 93.7056845, 27.0084565 ], [ 93.7190649, 27.0191608 ], [ 93.7685721, 27.0432454 ], [ 93.7736558, 27.0491394 ], [ 93.7857214, 27.0475942 ], [ 93.7913187, 27.0543957 ], [ 93.8014231, 27.0555058 ], [ 93.8127273, 27.0708981 ], [ 93.8189714, 27.0650999 ], [ 93.8350278, 27.0749122 ], [ 93.8256616, 27.1195133 ], [ 93.8131733, 27.1239734 ], [ 93.8136193, 27.1320016 ], [ 93.7980089, 27.1360157 ], [ 93.8055911, 27.1377998 ], [ 93.8073751, 27.1502881 ], [ 93.8675867, 27.1989034 ], [ 93.9010375, 27.2417205 ], [ 94.0000521, 27.3344908 ], [ 94.0607096, 27.3634816 ], [ 94.0861323, 27.4045146 ], [ 94.1066488, 27.417895 ], [ 94.1169071, 27.4308293 ], [ 94.1601702, 27.4665102 ], [ 94.1570481, 27.4781065 ], [ 94.1913856, 27.4963644 ], [ 94.2123535, 27.497731 ], [ 94.2639437, 27.525788 ], [ 94.2565086, 27.5574965 ], [ 94.2266259, 27.575783 ], [ 94.2212737, 27.5878253 ], [ 94.2248418, 27.5985296 ], [ 94.2110155, 27.6110179 ], [ 94.2172596, 27.6087879 ], [ 94.2351001, 27.6324265 ], [ 94.2520485, 27.6409007 ], [ 94.2667669, 27.6324265 ], [ 94.2542786, 27.613694 ], [ 94.2725651, 27.6034357 ], [ 94.2761331, 27.5931775 ], [ 94.2877294, 27.5918394 ], [ 94.2979877, 27.6043277 ], [ 94.3122601, 27.5896094 ], [ 94.3292085, 27.5882713 ], [ 94.3381287, 27.5811352 ], [ 94.3452649, 27.5847032 ], [ 94.3555232, 27.5775671 ], [ 94.3724716, 27.5793511 ], [ 94.3760397, 27.5847032 ], [ 94.4032464, 27.5873793 ], [ 94.4308991, 27.6029897 ], [ 94.4362513, 27.5842572 ], [ 94.4598899, 27.5574965 ], [ 94.4790683, 27.5771211 ], [ 94.5000309, 27.5771211 ], [ 94.5263456, 27.5958535 ], [ 94.5736228, 27.6070038 ], [ 94.5861111, 27.6199381 ], [ 94.6039515, 27.6230602 ], [ 94.6066618, 27.619779 ], [ 94.6230983, 27.627802 ], [ 94.6342134, 27.6254446 ], [ 94.6454306, 27.6364406 ], [ 94.6690692, 27.6502669 ], [ 94.6924702, 27.650157 ], [ 94.7075999, 27.653586 ], [ 94.7084111, 27.6565641 ], [ 94.7160347, 27.6588958 ], [ 94.7208065, 27.6698914 ], [ 94.7426611, 27.6632013 ], [ 94.7560414, 27.6663233 ], [ 94.7710705, 27.6846967 ], [ 94.7910052, 27.6898301 ], [ 94.7938122, 27.6956877 ], [ 94.7901403, 27.7007658 ], [ 94.7928715, 27.7028614 ], [ 94.8158311, 27.6963723 ], [ 94.8330188, 27.700229 ], [ 94.8459577, 27.7106587 ], [ 94.8537179, 27.731441 ], [ 94.8744046, 27.7354049 ], [ 94.9016188, 27.7824424 ], [ 94.9972539, 27.7732797 ], [ 95.309983, 27.8692595 ], [ 95.3844715, 27.8420518 ], [ 95.5197072, 27.8814942 ], [ 95.5311012, 27.8960976 ], [ 95.542345, 27.8979182 ], [ 95.5447483, 27.9008007 ], [ 95.5422163, 27.9085375 ], [ 95.5448992, 27.9114038 ], [ 95.5631589, 27.9192315 ], [ 95.5642318, 27.9293179 ], [ 95.5703632, 27.9376274 ], [ 95.5757761, 27.9399909 ], [ 95.5853891, 27.9366356 ], [ 95.5921268, 27.9458294 ], [ 95.604654, 27.9548395 ], [ 95.8226755, 27.9712428 ], [ 95.9705972, 27.9631723 ], [ 95.9649324, 27.951876 ], [ 95.9479809, 27.9372327 ], [ 95.949161, 27.9311663 ], [ 95.9544289, 27.9313843 ], [ 95.9481633, 27.9239904 ], [ 95.952487, 27.9204923 ], [ 95.9427023, 27.9110025 ], [ 95.9385395, 27.9129745 ], [ 95.9350097, 27.9091916 ], [ 95.9406853, 27.9056646 ], [ 95.9294736, 27.9029719 ], [ 95.9373701, 27.8984397 ], [ 95.9284758, 27.8951494 ], [ 95.9261262, 27.8988758 ], [ 95.9253108, 27.8953201 ], [ 95.9191203, 27.8951209 ], [ 95.923326, 27.8880375 ], [ 95.915215, 27.8891754 ], [ 95.9163844, 27.8851262 ], [ 95.9249461, 27.8820063 ], [ 95.9193671, 27.8806976 ], [ 95.9152257, 27.8834857 ], [ 95.9166419, 27.8807734 ], [ 95.9102261, 27.8701514 ], [ 95.9072006, 27.870692 ], [ 95.9065246, 27.8661395 ], [ 95.9014821, 27.8686339 ], [ 95.902791, 27.862668 ], [ 95.8954095, 27.8616531 ], [ 95.8966542, 27.8583143 ], [ 95.8917188, 27.8595283 ], [ 95.8942294, 27.8564646 ], [ 95.8892834, 27.8560994 ], [ 95.8864403, 27.8460773 ], [ 95.8709908, 27.8322831 ], [ 95.8375597, 27.8240759 ], [ 95.8374309, 27.8097095 ], [ 95.8259082, 27.8085518 ], [ 95.8107805, 27.7968693 ], [ 95.8102655, 27.7906811 ], [ 95.778315, 27.7424069 ], [ 95.779109, 27.7331484 ], [ 95.7665348, 27.7266147 ], [ 95.7545614, 27.7261208 ], [ 95.7521152, 27.7216762 ], [ 95.7645607, 27.7151608 ], [ 95.7625866, 27.7092149 ], [ 95.7680154, 27.7020339 ], [ 95.7645178, 27.6996971 ], [ 95.7640457, 27.6940353 ], [ 95.7681441, 27.6868723 ], [ 95.7835722, 27.6870813 ], [ 95.7904386, 27.6798038 ], [ 95.7794308, 27.6772575 ], [ 95.7743239, 27.6728108 ], [ 95.7702899, 27.6576832 ], [ 95.7757616, 27.6507649 ], [ 95.7960525, 27.6391699 ], [ 95.7882607, 27.634313 ], [ 95.7894516, 27.6259578 ], [ 95.7782507, 27.6230491 ], [ 95.7804822, 27.6166229 ], [ 95.7895374, 27.6129723 ], [ 95.7907819, 27.5997761 ], [ 95.8159732, 27.598445 ], [ 95.8192348, 27.5951361 ], [ 95.8118963, 27.5838396 ], [ 95.8148574, 27.5742918 ], [ 95.8241701, 27.5737592 ], [ 95.8337402, 27.5596452 ], [ 95.8415937, 27.5619279 ], [ 95.861206, 27.5435127 ], [ 95.8754217, 27.5462618 ], [ 95.8768594, 27.5442641 ], [ 95.8786082, 27.5182722 ], [ 95.876162, 27.5117732 ], [ 95.8865583, 27.4973276 ], [ 95.8797562, 27.4970897 ], [ 95.8732009, 27.4919886 ], [ 95.8705401, 27.4666411 ], [ 95.856421, 27.4613386 ], [ 95.8533203, 27.4571688 ], [ 95.8568716, 27.4454297 ], [ 95.8467221, 27.4384694 ], [ 95.8421624, 27.4270234 ], [ 95.8435678, 27.4224238 ], [ 95.8503163, 27.4175573 ], [ 95.8531809, 27.4107095 ], [ 95.8604014, 27.4082998 ], [ 95.8622146, 27.4119667 ], [ 95.8565283, 27.416243 ], [ 95.8575046, 27.4206239 ], [ 95.8699608, 27.425814 ], [ 95.8759689, 27.4349367 ], [ 95.8838975, 27.4347367 ], [ 95.8838332, 27.4141858 ], [ 95.8883285, 27.4083665 ], [ 95.8838975, 27.402223 ], [ 95.8856034, 27.3982129 ], [ 95.898242, 27.4115858 ], [ 95.9010315, 27.4236237 ], [ 95.9093141, 27.4353938 ], [ 95.9282398, 27.4383266 ], [ 95.9351491, 27.435508 ], [ 95.9430885, 27.436765 ], [ 95.9478092, 27.4310135 ], [ 95.9452343, 27.4269759 ], [ 95.9514355, 27.4244999 ], [ 95.9525728, 27.4185573 ], [ 95.9579587, 27.4285185 ], [ 95.9623146, 27.4288423 ], [ 95.9604263, 27.4189192 ], [ 95.9626364, 27.4165954 ], [ 95.9662199, 27.419643 ], [ 95.9654903, 27.427033 ], [ 95.9691921, 27.4286845 ], [ 95.9685119, 27.4226968 ], [ 95.974023, 27.4216289 ], [ 95.9753948, 27.4183564 ], [ 95.9702627, 27.4181523 ], [ 95.970191, 27.4129033 ], [ 95.9725004, 27.4104935 ], [ 95.9847502, 27.4117406 ], [ 95.9847846, 27.4062387 ], [ 95.9977063, 27.3951887 ], [ 95.9980572, 27.3853295 ], [ 96.0032559, 27.3822426 ], [ 96.0041872, 27.3739439 ], [ 96.0101187, 27.3705282 ], [ 96.0124397, 27.3642593 ], [ 96.0085559, 27.3601049 ], [ 95.9891367, 27.3563505 ], [ 95.987243, 27.3457215 ], [ 95.9767341, 27.3372337 ], [ 95.971887, 27.3367857 ], [ 95.9660482, 27.3283127 ], [ 95.9742665, 27.3285414 ], [ 95.9763908, 27.3255104 ], [ 95.9632802, 27.3229178 ], [ 95.9624541, 27.316903 ], [ 95.9559631, 27.3172176 ], [ 95.9609628, 27.3106591 ], [ 95.9482705, 27.3038238 ], [ 95.942713, 27.3051108 ], [ 95.9383786, 27.3009351 ], [ 95.9309971, 27.3001438 ], [ 95.9188628, 27.2904094 ], [ 95.9087884, 27.2895703 ], [ 95.9069216, 27.2821997 ], [ 95.8978021, 27.2824667 ], [ 95.905602, 27.2742565 ], [ 95.9009564, 27.2750289 ], [ 95.9005809, 27.2690402 ], [ 95.8941436, 27.2675811 ], [ 95.8955276, 27.2594937 ], [ 95.8924913, 27.2552782 ], [ 95.8692741, 27.2603712 ], [ 95.8560776, 27.2710905 ], [ 95.8539748, 27.2788909 ], [ 95.8591246, 27.2872248 ], [ 95.8152008, 27.2787383 ], [ 95.8053732, 27.2730359 ], [ 95.8056736, 27.275725 ], [ 95.7993436, 27.2767931 ], [ 95.8018756, 27.2845549 ], [ 95.787735, 27.2786239 ], [ 95.7791519, 27.2696028 ], [ 95.7412362, 27.2660552 ], [ 95.7345629, 27.260333 ], [ 95.7268595, 27.2589406 ], [ 95.7197356, 27.2498034 ], [ 95.7102299, 27.2531608 ], [ 95.7020116, 27.249212 ], [ 95.6926346, 27.2529509 ], [ 95.6820774, 27.2518064 ], [ 95.6318128, 27.2297286 ], [ 95.6205261, 27.2329339 ], [ 95.5986392, 27.2230791 ], [ 95.5865478, 27.2242573 ], [ 95.5792308, 27.2288366 ], [ 95.5745959, 27.2354571 ], [ 95.5769348, 27.2381472 ], [ 95.5737591, 27.2441185 ], [ 95.5481386, 27.2507763 ], [ 95.5452633, 27.2564417 ], [ 95.5356502, 27.2602567 ], [ 95.5328822, 27.2636519 ], [ 95.5350923, 27.265483 ], [ 95.5261016, 27.2642623 ], [ 95.5185699, 27.2568233 ], [ 95.5089783, 27.2609815 ], [ 95.5033564, 27.2472472 ], [ 95.4849672, 27.2420582 ], [ 95.4771566, 27.2264325 ], [ 95.4715132, 27.2243337 ], [ 95.4720711, 27.2188765 ], [ 95.4677152, 27.2188192 ], [ 95.4682946, 27.2148311 ], [ 95.4579735, 27.2099459 ], [ 95.4560637, 27.2035529 ], [ 95.4586172, 27.1967396 ], [ 95.463295, 27.195709 ], [ 95.4605698, 27.1917583 ], [ 95.4675114, 27.1831023 ], [ 95.4605484, 27.1778817 ], [ 95.4673934, 27.1715632 ], [ 95.4614282, 27.1604811 ], [ 95.4531777, 27.1574837 ], [ 95.4634452, 27.1506581 ], [ 95.456053, 27.14282 ], [ 95.4593897, 27.1393638 ], [ 95.4538643, 27.1301691 ], [ 95.4486716, 27.1301691 ], [ 95.4487038, 27.1342176 ], [ 95.4443693, 27.1353824 ], [ 95.4453885, 27.1292525 ], [ 95.4391551, 27.1260633 ], [ 95.4202294, 27.1261587 ], [ 95.3986215, 27.1089697 ], [ 95.3844595, 27.1056749 ], [ 95.382657, 27.0986837 ], [ 95.3747606, 27.092867 ], [ 95.3694069, 27.0943379 ], [ 95.3701258, 27.1022844 ], [ 95.3632593, 27.1034973 ], [ 95.3680873, 27.1071647 ], [ 95.3548908, 27.1039463 ], [ 95.2932, 27.0678391 ], [ 95.2774393, 27.0545396 ], [ 95.2761197, 27.0419838 ], [ 95.2586961, 27.0342624 ], [ 95.2599191, 27.0312807 ], [ 95.2482033, 27.0246194 ], [ 95.2436113, 27.025881 ], [ 95.2388477, 27.0372536 ], [ 95.2326357, 27.0382092 ], [ 95.2315092, 27.0436274 ], [ 95.2284729, 27.0354092 ], [ 95.2213383, 27.0362502 ], [ 95.2168429, 27.0311947 ], [ 95.2092039, 27.0291495 ], [ 95.2049446, 27.0370529 ], [ 95.1952135, 27.0353996 ], [ 95.1970374, 26.9975401 ], [ 95.1902997, 26.9930375 ], [ 95.1916033, 26.9843375 ], [ 95.2023429, 26.9818373 ], [ 95.2045852, 26.9789833 ], [ 95.2010447, 26.9741117 ], [ 95.2114946, 26.9660749 ], [ 95.2019191, 26.9586877 ], [ 95.2094829, 26.9527872 ], [ 95.2066666, 26.9419656 ], [ 95.2122187, 26.9301434 ], [ 95.225898, 26.9266329 ], [ 95.2318311, 26.9201663 ], [ 95.2323997, 26.9161388 ], [ 95.2285695, 26.9131827 ], [ 95.2322173, 26.9025917 ], [ 95.2269173, 26.8947794 ], [ 95.2302593, 26.8840144 ], [ 95.228076, 26.8808517 ], [ 95.2083993, 26.8822489 ], [ 95.1996445, 26.8710138 ], [ 95.1832294, 26.8632328 ], [ 95.1809871, 26.8561787 ], [ 95.1848066, 26.8542739 ], [ 95.1863086, 26.8478702 ], [ 95.2027452, 26.8456781 ], [ 95.1965117, 26.8359137 ], [ 95.1996124, 26.8278622 ], [ 95.1972306, 26.8228261 ], [ 95.204891, 26.8042501 ], [ 95.2119827, 26.799146 ], [ 95.207541, 26.7978819 ], [ 95.2082384, 26.7951238 ], [ 95.2148259, 26.7901437 ], [ 95.2423775, 26.782587 ], [ 95.2352536, 26.7764714 ], [ 95.2283281, 26.7754513 ], [ 95.227915, 26.7709206 ], [ 95.2324963, 26.7679702 ], [ 95.2212095, 26.7564651 ], [ 95.2162206, 26.7551239 ], [ 95.2150404, 26.747814 ], [ 95.2194285, 26.745802 ], [ 95.2099764, 26.7286029 ], [ 95.2274215, 26.7165667 ], [ 95.2257585, 26.7106631 ], [ 95.2328181, 26.7056985 ], [ 95.2301681, 26.6939954 ], [ 95.2332151, 26.6829718 ], [ 95.248847, 26.6838537 ], [ 95.2572774, 26.676427 ], [ 95.2587942, 26.6559292 ], [ 95.2742474, 26.6588157 ], [ 95.302841, 26.650863 ], [ 95.3140137, 26.6628401 ], [ 95.3261949, 26.6646366 ], [ 95.3271569, 26.6688291 ], [ 95.3351506, 26.6735894 ], [ 95.3448217, 26.6752354 ], [ 95.3605218, 26.6709561 ], [ 95.3746132, 26.6842756 ], [ 95.3940901, 26.6848001 ], [ 95.4011903, 26.68911 ], [ 95.4029864, 26.694392 ], [ 95.4177843, 26.6937803 ], [ 95.4306772, 26.7000927 ], [ 95.4329139, 26.7168169 ], [ 95.4489619, 26.7283918 ], [ 95.4591946, 26.7428781 ], [ 95.4681169, 26.7435789 ], [ 95.4738992, 26.7403648 ], [ 95.4827724, 26.7468467 ], [ 95.4845683, 26.7582832 ], [ 95.504642, 26.792603 ], [ 95.5066549, 26.8080321 ], [ 95.5222662, 26.8137607 ], [ 95.5247803, 26.8227828 ], [ 95.5358996, 26.8274125 ], [ 95.5429056, 26.8353867 ], [ 95.5564049, 26.8325283 ], [ 95.5696069, 26.8165296 ], [ 95.5863719, 26.8174849 ], [ 95.6028335, 26.8114605 ], [ 95.6080131, 26.8132842 ], [ 95.6125687, 26.8252839 ], [ 95.6206635, 26.8318093 ], [ 95.6269079, 26.8426598 ], [ 95.6290678, 26.8578855 ], [ 95.6269251, 26.8622833 ], [ 95.633843, 26.8684205 ], [ 95.6317845, 26.8736599 ], [ 95.6448016, 26.8768919 ], [ 95.646534, 26.8849076 ], [ 95.6668965, 26.9032755 ], [ 95.674792, 26.9013314 ], [ 95.6796845, 26.8955379 ], [ 95.6945843, 26.8921897 ], [ 95.7059273, 26.8806829 ], [ 95.7156128, 26.8790111 ], [ 95.7238205, 26.8825622 ], [ 95.7343441, 26.8940777 ], [ 95.7447997, 26.8965036 ], [ 95.7506079, 26.9090153 ], [ 95.7461597, 26.915956 ], [ 95.7479922, 26.9262437 ], [ 95.7553367, 26.9293711 ], [ 95.7597695, 26.9370102 ], [ 95.7553215, 26.9539482 ], [ 95.7603415, 26.9578494 ], [ 95.7603266, 26.963802 ], [ 95.7681367, 26.9770242 ], [ 95.7811321, 26.9777346 ], [ 95.7834235, 26.9901361 ], [ 95.7961592, 26.9984448 ], [ 95.8020423, 27.006453 ], [ 95.8015801, 27.0148865 ], [ 95.8124759, 27.014387 ], [ 95.8307625, 27.0076571 ], [ 95.8427212, 27.0140716 ], [ 95.8698787, 27.0130842 ], [ 95.8753385, 27.0150377 ], [ 95.8791069, 27.0226974 ], [ 95.8867386, 27.0265973 ], [ 95.8938994, 27.0261237 ], [ 95.9039753, 27.0389754 ], [ 95.9102423, 27.0366727 ], [ 95.9457812, 27.0514132 ], [ 95.9557778, 27.0782672 ], [ 95.964372, 27.0865456 ], [ 95.9634138, 27.0930201 ], [ 95.9845376, 27.112453 ], [ 95.9984335, 27.1356066 ], [ 96.0104097, 27.14307 ], [ 96.0228479, 27.1806796 ], [ 96.053528, 27.1958519 ], [ 96.0638553, 27.2057133 ], [ 96.075772, 27.2075415 ], [ 96.0900762, 27.2233332 ], [ 96.0997035, 27.224303 ], [ 96.1116974, 27.2321626 ], [ 96.1196912, 27.2316048 ], [ 96.15372, 27.2471721 ], [ 96.1852573, 27.2492306 ], [ 96.1921127, 27.2604313 ], [ 96.2096594, 27.2614309 ], [ 96.2285031, 27.278722 ], [ 96.2458734, 27.2764456 ], [ 96.2479794, 27.2727719 ], [ 96.2560592, 27.2746796 ], [ 96.2709285, 27.2713697 ], [ 96.2753438, 27.2797728 ], [ 96.2742417, 27.2835061 ], [ 96.3058981, 27.294079 ], [ 96.3406995, 27.2849717 ], [ 96.3457819, 27.2856322 ], [ 96.3522044, 27.2950014 ], [ 96.3667936, 27.2870306 ], [ 96.3699699, 27.28995 ], [ 96.3743973, 27.2851461 ], [ 96.3865938, 27.2846422 ], [ 96.402547, 27.2931453 ], [ 96.4078517, 27.2879144 ], [ 96.4215544, 27.3014485 ], [ 96.4357398, 27.3025078 ], [ 96.4406422, 27.306414 ], [ 96.4443707, 27.302133 ], [ 96.4508043, 27.3011548 ], [ 96.4576212, 27.3068681 ], [ 96.4884262, 27.2963117 ], [ 96.4902375, 27.302561 ], [ 96.5074756, 27.2988818 ], [ 96.5175124, 27.285312 ], [ 96.5237249, 27.2863625 ], [ 96.5312828, 27.2961184 ], [ 96.5413073, 27.3003308 ], [ 96.5426932, 27.3095471 ], [ 96.5513484, 27.3141469 ], [ 96.5514223, 27.3185661 ], [ 96.5645294, 27.3187353 ], [ 96.5886988, 27.3358621 ], [ 96.5959412, 27.3338026 ], [ 96.5910911, 27.3476456 ], [ 96.6006412, 27.3550926 ], [ 96.6053347, 27.3658797 ], [ 96.6259859, 27.3665017 ], [ 96.6469549, 27.3595003 ], [ 96.6607877, 27.3642557 ], [ 96.6724542, 27.3578034 ], [ 96.6759011, 27.3613775 ], [ 96.6979221, 27.3579493 ], [ 96.7019228, 27.3604179 ], [ 96.7035337, 27.3724528 ], [ 96.7296155, 27.3619737 ], [ 96.729267, 27.3595842 ], [ 96.7457619, 27.3580998 ], [ 96.7508218, 27.3532671 ], [ 96.7670122, 27.35743 ], [ 96.7901144, 27.3458096 ], [ 96.7966013, 27.3457714 ], [ 96.8056731, 27.3288362 ], [ 96.8219618, 27.3095547 ], [ 96.8355529, 27.3026555 ], [ 96.8478908, 27.2902642 ], [ 96.8503078, 27.2778922 ], [ 96.8469495, 27.2715247 ], [ 96.8616714, 27.2602904 ], [ 96.88462, 27.2597599 ], [ 96.8877675, 27.2481988 ], [ 96.8815958, 27.2400398 ], [ 96.8822405, 27.2370977 ], [ 96.8874615, 27.2357921 ], [ 96.8853319, 27.227248 ], [ 96.8605547, 27.2111639 ], [ 96.8544094, 27.2108549 ], [ 96.8581538, 27.2037418 ], [ 96.8566513, 27.1927224 ], [ 96.8739219, 27.181332 ], [ 96.9012468, 27.1688834 ], [ 96.9302621, 27.1624022 ], [ 96.9562512, 27.164159 ], [ 96.964962, 27.1586796 ], [ 96.9846069, 27.1554116 ], [ 96.9932603, 27.1408961 ], [ 97.0100147, 27.1395877 ], [ 97.0272154, 27.129546 ], [ 97.0306243, 27.1313939 ], [ 97.0358924, 27.1242546 ], [ 97.0338622, 27.1183926 ], [ 97.0415946, 27.1159337 ], [ 97.0444281, 27.1083554 ], [ 97.0619236, 27.0992251 ], [ 97.0634739, 27.0918137 ], [ 97.0707113, 27.0898041 ], [ 97.0755547, 27.0990927 ], [ 97.0861706, 27.0958011 ], [ 97.0966204, 27.0967453 ], [ 97.0947568, 27.1041813 ], [ 97.1018993, 27.1091032 ], [ 97.1065402, 27.1044565 ], [ 97.1193769, 27.1045859 ], [ 97.1247191, 27.096286 ], [ 97.1385085, 27.0917751 ], [ 97.1485631, 27.1085273 ], [ 97.1500239, 27.1180727 ], [ 97.161542, 27.1236437 ], [ 97.1658344, 27.1357363 ], [ 97.1629269, 27.1442735 ], [ 97.1515222, 27.1495534 ], [ 97.1472527, 27.1656167 ], [ 97.1362932, 27.1656461 ], [ 97.1246331, 27.1749455 ], [ 97.1220257, 27.1904839 ], [ 97.0902936, 27.2138741 ], [ 97.0924591, 27.2263704 ], [ 97.0885121, 27.2389097 ], [ 97.0737228, 27.247652 ], [ 97.0723882, 27.2542752 ], [ 97.0550864, 27.2659179 ], [ 97.0544188, 27.275537 ], [ 97.0413099, 27.2822259 ], [ 97.0293597, 27.3012874 ], [ 97.0283637, 27.309162 ], [ 97.0208722, 27.3080783 ], [ 97.0194357, 27.3113294 ], [ 97.0089552, 27.3119762 ], [ 96.9991759, 27.3183478 ], [ 96.9910494, 27.3445206 ], [ 96.9811148, 27.3462486 ], [ 96.9781075, 27.357832 ], [ 96.9628219, 27.3735293 ], [ 96.967477, 27.3829345 ], [ 96.9603944, 27.3954419 ], [ 96.9609853, 27.4043614 ], [ 96.9435913, 27.4101021 ], [ 96.9341513, 27.4175218 ], [ 96.9311194, 27.4236189 ], [ 96.9320326, 27.4319706 ], [ 96.9160606, 27.4469109 ], [ 96.9029052, 27.4534563 ], [ 96.9046952, 27.4698096 ], [ 96.9110857, 27.487226 ], [ 96.9262484, 27.5076871 ], [ 96.9350116, 27.5079866 ], [ 96.9284632, 27.5119325 ], [ 96.9265032, 27.5262036 ], [ 96.9217897, 27.5336707 ], [ 96.9074443, 27.5437488 ], [ 96.9105723, 27.5769724 ], [ 96.907444, 27.5806926 ], [ 96.8920027, 27.5778253 ], [ 96.8950057, 27.5882015 ], [ 96.89326, 27.6135101 ], [ 96.894329, 27.6160434 ], [ 96.9052299, 27.6144007 ], [ 96.9126829, 27.6200105 ], [ 96.9140357, 27.6286709 ], [ 96.9232911, 27.632441 ], [ 96.9325388, 27.6452137 ], [ 96.9360939, 27.6570779 ], [ 96.9534019, 27.6644021 ], [ 96.9661387, 27.6629074 ], [ 96.9708255, 27.6673644 ], [ 96.979707, 27.664106 ], [ 96.9847962, 27.6673352 ], [ 96.9853244, 27.6825172 ], [ 97.0030273, 27.707879 ], [ 97.0081687, 27.7099049 ], [ 97.008699, 27.7162549 ], [ 97.0177786, 27.7280052 ], [ 97.0158503, 27.7342927 ], [ 97.0201429, 27.742247 ], [ 97.0286578, 27.7419748 ], [ 97.0322092, 27.7496236 ], [ 97.0401045, 27.7482227 ], [ 97.045023, 27.7410703 ], [ 97.0497799, 27.741177 ], [ 97.0547838, 27.748173 ], [ 97.0617038, 27.7488367 ], [ 97.0750396, 27.7370828 ], [ 97.0880974, 27.7354525 ], [ 97.0972705, 27.749506 ], [ 97.0975704, 27.7534633 ], [ 97.0929593, 27.7564475 ], [ 97.0955, 27.7659151 ], [ 97.1130077, 27.7792148 ], [ 97.1130932, 27.7868342 ], [ 97.119339, 27.7859757 ], [ 97.1306518, 27.7943459 ], [ 97.1365346, 27.8047638 ], [ 97.1486848, 27.8045993 ], [ 97.1648398, 27.8150836 ], [ 97.1655487, 27.8278653 ], [ 97.1842641, 27.8319152 ], [ 97.1840791, 27.8416647 ], [ 97.1982417, 27.8502894 ], [ 97.2180689, 27.871255 ], [ 97.2256315, 27.8732554 ], [ 97.2428228, 27.8969881 ], [ 97.2619881, 27.9016516 ], [ 97.2671437, 27.9069547 ], [ 97.2797833, 27.9101879 ], [ 97.2850233, 27.9085065 ], [ 97.28789, 27.9130378 ], [ 97.2978958, 27.9162838 ], [ 97.3045807, 27.913842 ], [ 97.3083429, 27.9047337 ], [ 97.3153991, 27.900726 ], [ 97.3199782, 27.8939533 ], [ 97.3191061, 27.8885753 ], [ 97.3425077, 27.8855229 ], [ 97.3496276, 27.87802 ], [ 97.360184, 27.8730554 ], [ 97.3662, 27.8772378 ], [ 97.3704152, 27.8861043 ], [ 97.3791363, 27.8920637 ], [ 97.3689617, 27.9222968 ], [ 97.3709966, 27.9295644 ], [ 97.3669267, 27.9365412 ], [ 97.3771013, 27.9497682 ], [ 97.374485, 27.9548555 ], [ 97.3646011, 27.9597975 ], [ 97.3616885, 27.9657567 ], [ 97.366092, 27.9774354 ], [ 97.3753571, 27.9781117 ], [ 97.3757307, 27.9823987 ], [ 97.3843563, 27.986102 ], [ 97.3862023, 27.9962651 ], [ 97.384056, 28.0008264 ], [ 97.3950905, 28.0118793 ], [ 97.3860404, 28.0215343 ], [ 97.3776532, 28.0223746 ], [ 97.3755025, 28.0326185 ], [ 97.358236, 28.0530236 ], [ 97.3586417, 28.0631423 ], [ 97.3548626, 28.0666308 ], [ 97.3480311, 28.065904 ], [ 97.3379668, 28.0583672 ], [ 97.3275164, 28.0612437 ], [ 97.3186595, 28.0582854 ], [ 97.3122714, 28.0623846 ], [ 97.321345, 28.0820787 ], [ 97.327486, 28.0843493 ], [ 97.3240019, 28.1024487 ], [ 97.3321328, 28.1043631 ], [ 97.3276041, 28.1133916 ], [ 97.3229589, 28.1139307 ], [ 97.3237573, 28.1259955 ], [ 97.3290648, 28.1271345 ], [ 97.3248982, 28.1347638 ], [ 97.3256437, 28.1398269 ], [ 97.3372215, 28.1430867 ], [ 97.3405595, 28.1502912 ], [ 97.3532177, 28.1530102 ], [ 97.3517967, 28.1579889 ], [ 97.3592195, 28.1659067 ], [ 97.353158, 28.1767536 ], [ 97.3574884, 28.181863 ], [ 97.361811, 28.1983007 ], [ 97.3602175, 28.2047533 ], [ 97.3474051, 28.2081958 ], [ 97.3455681, 28.2157244 ], [ 97.3269984, 28.2148106 ], [ 97.2958761, 28.2335305 ], [ 97.2840729, 28.2315179 ], [ 97.2808913, 28.245342 ], [ 97.274787, 28.2433006 ], [ 97.2693554, 28.2461972 ], [ 97.2638676, 28.2641338 ], [ 97.2434112, 28.2648034 ], [ 97.2353039, 28.2860448 ], [ 97.2380143, 28.2937316 ], [ 97.2137249, 28.3051302 ], [ 97.2069306, 28.3027323 ], [ 97.178531, 28.333971 ], [ 97.1678021, 28.3297896 ], [ 97.1577196, 28.3349677 ], [ 97.1497413, 28.3435412 ], [ 97.1474746, 28.3514087 ], [ 97.1377109, 28.3520479 ], [ 97.1268741, 28.3616308 ], [ 97.0780093, 28.3711577 ], [ 97.0680509, 28.3631592 ], [ 97.051686, 28.3565156 ], [ 97.0217881, 28.3223179 ], [ 97.0156533, 28.3204772 ], [ 96.997295, 28.3268773 ], [ 96.976867, 28.329568 ], [ 96.952632, 28.346029 ], [ 96.9246376, 28.3530882 ], [ 96.921691, 28.364015 ], [ 96.889683, 28.385811 ], [ 96.883128, 28.400139 ], [ 96.884348, 28.405626 ], [ 96.8922607, 28.4130024 ], [ 96.892883, 28.418581 ], [ 96.8867642, 28.4292199 ], [ 96.8622203, 28.4527852 ], [ 96.8644323, 28.4565443 ], [ 96.8611334, 28.4624559 ], [ 96.8595165, 28.4837166 ], [ 96.8498444, 28.4860803 ], [ 96.8208014, 28.5043627 ], [ 96.7932731, 28.505801 ], [ 96.7897631, 28.51057 ], [ 96.759798, 28.519433 ], [ 96.7520492, 28.5324973 ], [ 96.75163, 28.5420635 ], [ 96.7623511, 28.5527037 ], [ 96.7530346, 28.5596582 ], [ 96.7501161, 28.5680293 ], [ 96.745415, 28.571337 ], [ 96.7227754, 28.5792897 ], [ 96.7174944, 28.5917725 ], [ 96.7184301, 28.606284 ], [ 96.71465, 28.6100008 ], [ 96.7109701, 28.6111371 ], [ 96.704022, 28.5981996 ], [ 96.6870197, 28.5903057 ], [ 96.6633051, 28.6021203 ], [ 96.661402, 28.607626 ], [ 96.6509781, 28.6134787 ], [ 96.6505404, 28.6171088 ], [ 96.6455214, 28.6194812 ], [ 96.6488837, 28.6227858 ], [ 96.6479896, 28.6280546 ], [ 96.6366325, 28.6508255 ], [ 96.644393, 28.6550742 ], [ 96.6419914, 28.6612528 ], [ 96.646907, 28.6671573 ], [ 96.6417655, 28.6717247 ], [ 96.6403204, 28.6791778 ], [ 96.6458459, 28.6898947 ], [ 96.6285306, 28.7033363 ], [ 96.6321122, 28.714378 ], [ 96.6306779, 28.7346854 ], [ 96.6159081, 28.740311 ], [ 96.6035594, 28.759114 ], [ 96.6035114, 28.780653 ], [ 96.5804154, 28.779237 ], [ 96.5725549, 28.7876638 ], [ 96.5796124, 28.8076425 ], [ 96.5901723, 28.8185539 ], [ 96.5779972, 28.8198732 ], [ 96.5684778, 28.8251715 ], [ 96.5564878, 28.8366285 ], [ 96.5497811, 28.8508881 ], [ 96.5393596, 28.8490939 ], [ 96.5296874, 28.8607686 ], [ 96.5237946, 28.8624056 ], [ 96.5213028, 28.8699392 ], [ 96.5266292, 28.8807535 ], [ 96.5201483, 28.8884301 ], [ 96.5176264, 28.9047403 ], [ 96.5182157, 28.9099029 ], [ 96.5286376, 28.9168433 ], [ 96.5237828, 28.9358387 ], [ 96.5137756, 28.9451539 ], [ 96.5041066, 28.9481812 ], [ 96.4961952, 28.9431246 ], [ 96.4825822, 28.9422189 ], [ 96.4678427, 28.9350538 ], [ 96.4523623, 28.9382059 ], [ 96.4469919, 28.94286 ], [ 96.4359008, 28.9730301 ], [ 96.4443592, 28.9946361 ], [ 96.4332879, 29.0101114 ], [ 96.4205188, 29.0165017 ], [ 96.4147802, 29.0237592 ], [ 96.3899996, 29.0334027 ], [ 96.3795401, 29.0325053 ], [ 96.3640932, 29.0426601 ], [ 96.3621709, 29.051573 ], [ 96.3656585, 29.0810645 ], [ 96.3504289, 29.0823513 ], [ 96.3297247, 29.1135119 ], [ 96.3155123, 29.1171905 ], [ 96.3070293, 29.1255952 ], [ 96.3105297, 29.1306085 ], [ 96.3113044, 29.1409797 ], [ 96.3214181, 29.1459024 ], [ 96.3249125, 29.1521018 ], [ 96.3211177, 29.1540792 ], [ 96.3220762, 29.1591137 ], [ 96.3165973, 29.1642854 ], [ 96.3194726, 29.1690696 ], [ 96.313021, 29.1768012 ], [ 96.306476, 29.1782134 ], [ 96.2964208, 29.1972469 ], [ 96.284361, 29.2026935 ], [ 96.2868859, 29.2097147 ], [ 96.2736845, 29.210447 ], [ 96.2605044, 29.2176036 ], [ 96.2651171, 29.2223943 ], [ 96.2600068, 29.2330745 ], [ 96.2653241, 29.2453838 ], [ 96.2250988, 29.2567792 ], [ 96.2156582, 29.2654099 ], [ 96.1962182, 29.2656811 ], [ 96.1852447, 29.2730688 ], [ 96.1711607, 29.2941558 ], [ 96.1527057, 29.2965214 ], [ 96.1490802, 29.3118765 ], [ 96.1429749, 29.3148468 ], [ 96.1469208, 29.3294989 ], [ 96.1453735, 29.3334579 ], [ 96.141598, 29.3350835 ], [ 96.1405027, 29.3423985 ], [ 96.1321793, 29.3477792 ], [ 96.0653543, 29.3738102 ], [ 96.0548897, 29.3674809 ], [ 96.0193346, 29.3607497 ], [ 96.0081846, 29.3650026 ], [ 96.0055769, 29.3615468 ], [ 95.9955542, 29.3651371 ], [ 95.98082, 29.3612851 ], [ 95.972789, 29.3733928 ], [ 95.9669042, 29.3745566 ], [ 95.9568643, 29.3660005 ], [ 95.9422758, 29.3628966 ], [ 95.940074, 29.3491231 ], [ 95.9215032, 29.3418852 ], [ 95.9185217, 29.3322152 ], [ 95.9113382, 29.3368392 ], [ 95.8940926, 29.3315823 ], [ 95.877492, 29.314569 ], [ 95.867379, 29.317901 ], [ 95.862024, 29.315164 ], [ 95.849888, 29.316949 ], [ 95.841083, 29.321233 ], [ 95.8366938, 29.3370304 ], [ 95.842383, 29.340016 ], [ 95.838883, 29.353088 ], [ 95.812326, 29.34753 ], [ 95.776839, 29.322964 ], [ 95.757408, 29.322608 ], [ 95.737147, 29.297963 ], [ 95.748403, 29.288366 ], [ 95.752431, 29.276162 ], [ 95.735962, 29.255427 ], [ 95.730275, 29.239669 ], [ 95.734422, 29.230072 ], [ 95.743189, 29.225688 ], [ 95.735251, 29.217512 ], [ 95.722218, 29.215735 ], [ 95.708829, 29.204005 ], [ 95.703379, 29.205427 ], [ 95.705748, 29.213247 ], [ 95.698284, 29.22474 ], [ 95.66416, 29.223555 ], [ 95.648046, 29.210403 ], [ 95.63762, 29.216446 ], [ 95.63608, 29.223318 ], [ 95.605629, 29.235996 ], [ 95.596861, 29.226043 ], [ 95.59461, 29.20673 ], [ 95.6040787, 29.193855 ], [ 95.595676, 29.18801 ], [ 95.5877678, 29.1880103 ], [ 95.5848493, 29.1836653 ], [ 95.5738324, 29.179612 ], [ 95.548875, 29.197014 ], [ 95.5331024, 29.194763 ], [ 95.529088, 29.189194 ], [ 95.5050038, 29.193578 ], [ 95.5015724, 29.1873066 ], [ 95.5070228, 29.1780824 ], [ 95.5066332, 29.1721471 ], [ 95.5137615, 29.1666015 ], [ 95.5138018, 29.1568781 ], [ 95.5163613, 29.155161 ], [ 95.5141315, 29.1478899 ], [ 95.5167602, 29.1441466 ], [ 95.5102328, 29.13249 ], [ 95.5112636, 29.1275773 ], [ 95.5077871, 29.1259826 ], [ 95.479851, 29.1439512 ], [ 95.4735674, 29.1425695 ], [ 95.4675459, 29.1366033 ], [ 95.4596528, 29.1372488 ], [ 95.4524697, 29.1485941 ], [ 95.4551661, 29.1542255 ], [ 95.4502008, 29.1610953 ], [ 95.4554096, 29.1673536 ], [ 95.4529406, 29.1710046 ], [ 95.4546797, 29.1768227 ], [ 95.4405667, 29.188165 ], [ 95.4331472, 29.1901998 ], [ 95.4262994, 29.1845729 ], [ 95.4204868, 29.1847444 ], [ 95.419016, 29.180664 ], [ 95.420556, 29.170355 ], [ 95.4197294, 29.1656915 ], [ 95.4158776, 29.1645108 ], [ 95.4157473, 29.1500345 ], [ 95.4101989, 29.1485088 ], [ 95.4133356, 29.126702 ], [ 95.403139, 29.124028 ], [ 95.3972622, 29.1267367 ], [ 95.3915646, 29.1355999 ], [ 95.3803631, 29.1386025 ], [ 95.3466148, 29.1351103 ], [ 95.3365168, 29.1398824 ], [ 95.3296438, 29.1368562 ], [ 95.3127265, 29.1416335 ], [ 95.3053718, 29.1405665 ], [ 95.2991077, 29.1372224 ], [ 95.297688, 29.131611 ], [ 95.289038, 29.122725 ], [ 95.2782835, 29.1179313 ], [ 95.2825976, 29.1102974 ], [ 95.2700692, 29.1035586 ], [ 95.2726828, 29.0977406 ], [ 95.272264, 29.0744163 ], [ 95.2650772, 29.0714084 ], [ 95.2594398, 29.0727921 ], [ 95.2514685, 29.0841408 ], [ 95.2390681, 29.0849377 ], [ 95.231007, 29.1039474 ], [ 95.2145245, 29.1082214 ], [ 95.208266, 29.1086913 ], [ 95.192829, 29.101634 ], [ 95.1760462, 29.1065205 ], [ 95.1665013, 29.098454 ], [ 95.1601598, 29.1004886 ], [ 95.1501222, 29.0906153 ], [ 95.1345658, 29.0893091 ], [ 95.1299118, 29.0990658 ], [ 95.1238779, 29.100917 ], [ 95.1038865, 29.0974076 ], [ 95.0957949, 29.110436 ], [ 95.0994577, 29.1349965 ], [ 95.0978569, 29.1430294 ], [ 95.0884609, 29.1418766 ], [ 95.0790269, 29.1465216 ], [ 95.058046, 29.1413801 ], [ 95.05087, 29.1525168 ], [ 95.0427294, 29.1505797 ], [ 95.0331995, 29.1536192 ], [ 95.0104059, 29.1641427 ], [ 94.9973537, 29.1747687 ], [ 94.9925174, 29.1752617 ], [ 94.988995, 29.1716012 ], [ 94.9948257, 29.1695631 ], [ 95.0112233, 29.1522276 ], [ 95.0160123, 29.1354265 ], [ 95.0217624, 29.1275593 ], [ 95.013177, 29.127579 ], [ 94.9995513, 29.1340204 ], [ 94.9952109, 29.1368153 ], [ 94.9907822, 29.1483789 ], [ 94.9611621, 29.1610259 ], [ 94.9539145, 29.1589478 ], [ 94.9385025, 29.1623667 ], [ 94.9268431, 29.1574546 ], [ 94.9164161, 29.157737 ], [ 94.908795, 29.161747 ], [ 94.90698, 29.167771 ], [ 94.899505, 29.173723 ], [ 94.884191, 29.179093 ], [ 94.847539, 29.182577 ], [ 94.807259, 29.164868 ], [ 94.804065, 29.16661 ], [ 94.797388, 29.186061 ], [ 94.800509, 29.205729 ], [ 94.803702, 29.208415 ], [ 94.79434, 29.217705 ], [ 94.770752, 29.218285 ], [ 94.751664, 29.22968 ], [ 94.744842, 29.243252 ], [ 94.749197, 29.2508 ], [ 94.747745, 29.256171 ], [ 94.735697, 29.275912 ], [ 94.7349261, 29.2869657 ], [ 94.715521, 29.291516 ], [ 94.710005, 29.302185 ], [ 94.693603, 29.317934 ], [ 94.6675784, 29.3034544 ], [ 94.659056, 29.306467 ], [ 94.6469163, 29.2965794 ], [ 94.6285709, 29.2954986 ], [ 94.6112249, 29.2787147 ], [ 94.5927608, 29.2738484 ], [ 94.5846383, 29.2622138 ], [ 94.5728502, 29.2561774 ], [ 94.5744049, 29.2513859 ], [ 94.5681353, 29.2425976 ], [ 94.5598677, 29.2379991 ], [ 94.5573461, 29.2282616 ], [ 94.552802, 29.228519 ], [ 94.5397089, 29.2187134 ], [ 94.512289, 29.2298787 ], [ 94.5052687, 29.2259042 ], [ 94.5038582, 29.218234 ], [ 94.491982, 29.207762 ], [ 94.456855, 29.213132 ], [ 94.451992, 29.203407 ], [ 94.4547511, 29.1943769 ], [ 94.448073, 29.183376 ], [ 94.4296343, 29.1863103 ], [ 94.417373, 29.178948 ], [ 94.393205, 29.184609 ], [ 94.388414, 29.17844 ], [ 94.3878756, 29.1612462 ], [ 94.378907, 29.154127 ], [ 94.3505859, 29.1511869 ], [ 94.3345022, 29.1546286 ], [ 94.326924, 29.1518534 ], [ 94.3183866, 29.1556152 ], [ 94.295003, 29.1512924 ], [ 94.2930916, 29.1379526 ], [ 94.2955594, 29.1327227 ], [ 94.292827, 29.1239469 ], [ 94.275992, 29.112733 ], [ 94.27454, 29.099669 ], [ 94.276863, 29.093863 ], [ 94.284604, 29.086412 ], [ 94.315571, 29.075864 ], [ 94.313345, 29.066187 ], [ 94.324087, 29.054962 ], [ 94.32757, 29.040543 ], [ 94.360375, 29.034253 ], [ 94.366375, 29.025931 ], [ 94.341892, 29.001932 ], [ 94.322151, 28.993416 ], [ 94.309474, 28.993997 ], [ 94.302991, 28.98461 ], [ 94.27396, 28.967869 ], [ 94.274734, 28.952483 ], [ 94.257702, 28.930225 ], [ 94.2289341, 28.928552 ], [ 94.2149278, 28.9335684 ], [ 94.1797568, 28.936924 ], [ 94.166448, 28.923839 ], [ 94.167029, 28.919097 ], [ 94.174771, 28.911839 ], [ 94.144191, 28.897904 ], [ 94.135869, 28.890453 ], [ 94.078678, 28.882711 ], [ 94.0595284, 28.873805 ], [ 94.0584634, 28.8583361 ], [ 94.036874, 28.857358 ], [ 94.021487, 28.839358 ], [ 94.018197, 28.822908 ], [ 94.019745, 28.793489 ], [ 93.9977056, 28.7906446 ], [ 93.9868125, 28.7952725 ], [ 93.9899293, 28.8018795 ], [ 93.9863062, 28.8110871 ], [ 93.9770842, 28.8182426 ], [ 93.9700874, 28.8170923 ], [ 93.956358, 28.8041362 ], [ 93.9476249, 28.8025411 ], [ 93.9457186, 28.7928713 ], [ 93.9403678, 28.7878115 ], [ 93.9271031, 28.7825621 ], [ 93.9218728, 28.7756892 ], [ 93.9158115, 28.7733526 ], [ 93.9132342, 28.7692214 ], [ 93.9222006, 28.7426864 ], [ 93.9195946, 28.741108 ], [ 93.9107325, 28.7390995 ], [ 93.8971873, 28.756051 ], [ 93.8666733, 28.7444921 ], [ 93.861456, 28.7382971 ], [ 93.8442288, 28.7462159 ], [ 93.8335205, 28.7403641 ], [ 93.8120798, 28.7398755 ], [ 93.8000674, 28.733225 ], [ 93.7913362, 28.7360215 ], [ 93.7851393, 28.7117847 ], [ 93.7570904, 28.6993358 ], [ 93.7406002, 28.6855691 ], [ 93.7292479, 28.6805499 ], [ 93.7238184, 28.6677218 ], [ 93.7147106, 28.6647447 ], [ 93.7064597, 28.6653788 ], [ 93.689955, 28.6754543 ], [ 93.680601, 28.6707062 ], [ 93.6625512, 28.6686521 ], [ 93.6393676, 28.6546712 ], [ 93.6341677, 28.6588829 ], [ 93.6241521, 28.6867562 ], [ 93.5366252, 28.6705295 ], [ 93.5219436, 28.6733758 ], [ 93.5108196, 28.6674352 ], [ 93.5070485, 28.6606863 ], [ 93.5034718, 28.6296396 ], [ 93.4618793, 28.6186893 ], [ 93.4559183, 28.6146088 ], [ 93.4541609, 28.6052996 ], [ 93.4443439, 28.5893214 ], [ 93.4322252, 28.582816 ], [ 93.4179294, 28.585457 ], [ 93.4154223, 28.5773906 ], [ 93.3992383, 28.5655463 ], [ 93.3903296, 28.5429113 ], [ 93.3926648, 28.5341709 ], [ 93.389643, 28.5311234 ], [ 93.3634471, 28.5356714 ], [ 93.3520204, 28.527608 ], [ 93.3292664, 28.5215716 ], [ 93.3155652, 28.5280963 ], [ 93.3060264, 28.5277913 ], [ 93.2988894, 28.5417901 ], [ 93.2893662, 28.541463 ], [ 93.2792902, 28.5496578 ], [ 93.2751712, 28.5585708 ], [ 93.2603357, 28.5508501 ], [ 93.2505135, 28.549311 ], [ 93.2092457, 28.5035361 ], [ 93.181843, 28.4785541 ], [ 93.1674957, 28.4537131 ], [ 93.1591934, 28.4526534 ], [ 93.1547752, 28.4490961 ], [ 93.1563925, 28.4470711 ], [ 93.149637, 28.4467974 ], [ 93.1704276, 28.4360381 ], [ 93.170768, 28.4294302 ], [ 93.1633972, 28.4002721 ], [ 93.1457805, 28.3792431 ], [ 93.1517637, 28.3715919 ], [ 93.148613, 28.3665682 ], [ 93.1393416, 28.363599 ], [ 93.1177494, 28.3460699 ], [ 93.1009254, 28.3408452 ], [ 93.0859107, 28.3259615 ], [ 93.0789029, 28.3265426 ], [ 93.0659774, 28.3063459 ], [ 93.0610404, 28.3048526 ], [ 93.0507244, 28.3119939 ], [ 93.0273703, 28.2993314 ], [ 93.0059808, 28.2971555 ], [ 92.9918893, 28.2711587 ], [ 92.9715815, 28.2693381 ], [ 92.9449771, 28.2595398 ], [ 92.9325519, 28.2486456 ], [ 92.9327395, 28.2409614 ], [ 92.9276405, 28.2307359 ], [ 92.9288877, 28.2237442 ], [ 92.9373671, 28.2164342 ], [ 92.9329267, 28.2053643 ], [ 92.9266587, 28.2056218 ], [ 92.9227247, 28.2005569 ], [ 92.9162568, 28.1988167 ], [ 92.9055166, 28.2015815 ], [ 92.8827609, 28.2009069 ], [ 92.8677964, 28.1893879 ], [ 92.8451787, 28.1805459 ], [ 92.8413782, 28.1816171 ], [ 92.8325329, 28.1737723 ], [ 92.7934026, 28.1865793 ], [ 92.7784643, 28.18504 ], [ 92.770676, 28.1785317 ], [ 92.7735436, 28.1693292 ], [ 92.7628469, 28.1613085 ], [ 92.746386, 28.1614667 ], [ 92.7390826, 28.1536087 ], [ 92.7233648, 28.1608544 ], [ 92.715786, 28.167915 ], [ 92.6947224, 28.1508292 ], [ 92.6776561, 28.1513143 ], [ 92.6762867, 28.1420865 ], [ 92.6690322, 28.1326435 ], [ 92.6667452, 28.0998592 ], [ 92.6572108, 28.0867662 ], [ 92.6568889, 28.0769975 ], [ 92.6643562, 28.0703142 ], [ 92.6733328, 28.0676092 ], [ 92.6813936, 28.0692539 ], [ 92.6856443, 28.0666648 ], [ 92.6970789, 28.072085 ], [ 92.7147817, 28.0663759 ], [ 92.731862, 28.0545603 ], [ 92.7376985, 28.0378949 ], [ 92.7269697, 28.024826 ], [ 92.7212619, 28.0009948 ], [ 92.7245235, 27.9907257 ], [ 92.7326774, 27.9857613 ], [ 92.7304887, 27.9800008 ], [ 92.7086448, 27.9640062 ], [ 92.6979589, 27.9635513 ], [ 92.6848268, 27.9478197 ], [ 92.6752567, 27.9489949 ], [ 92.6671886, 27.9426259 ], [ 92.6665789, 27.9335696 ], [ 92.6561164, 27.9257536 ], [ 92.6469755, 27.9124436 ], [ 92.6263761, 27.9100923 ], [ 92.6080942, 27.9177905 ], [ 92.5993394, 27.9146051 ], [ 92.5930309, 27.910737 ], [ 92.5814437, 27.8900668 ], [ 92.5810146, 27.8808493 ], [ 92.5689125, 27.8839219 ], [ 92.561059, 27.8738693 ], [ 92.5535488, 27.8772455 ], [ 92.5435495, 27.8689374 ], [ 92.5313343, 27.8659774 ], [ 92.52604, 27.8535715 ], [ 92.5114488, 27.8469691 ], [ 92.5004625, 27.8521296 ], [ 92.4775886, 27.8364956 ], [ 92.4749708, 27.8336494 ], [ 92.4765157, 27.8255656 ], [ 92.4696493, 27.8230987 ], [ 92.470745, 27.816289 ], [ 92.4617958, 27.7941738 ], [ 92.4560022, 27.792921 ], [ 92.450509, 27.7988433 ], [ 92.4415826, 27.7997165 ], [ 92.4344587, 27.8048412 ], [ 92.4263906, 27.8029812 ], [ 92.4215841, 27.8220359 ], [ 92.4270773, 27.8315621 ], [ 92.4218416, 27.8356987 ], [ 92.4097395, 27.82845 ], [ 92.4057483, 27.8208594 ], [ 92.3979806, 27.8216564 ], [ 92.3699569, 27.8098899 ], [ 92.3642921, 27.8044237 ], [ 92.3548936, 27.8068911 ], [ 92.3374271, 27.7965276 ], [ 92.3246812, 27.7975146 ], [ 92.3206043, 27.7997924 ], [ 92.320488, 27.809811 ], [ 92.3116779, 27.8242752 ], [ 92.306124, 27.825301 ], [ 92.2977733, 27.8337253 ], [ 92.303009, 27.8536474 ], [ 92.2997474, 27.8546339 ], [ 92.2939539, 27.8722759 ], [ 92.2656726, 27.8873358 ], [ 92.2560695, 27.8801158 ], [ 92.2443866, 27.887753 ], [ 92.2385931, 27.886653 ], [ 92.2242164, 27.8756523 ], [ 92.2131013, 27.8732243 ], [ 92.2131685, 27.8637789 ], [ 92.1925889, 27.8572801 ], [ 92.1861693, 27.8472072 ], [ 92.1741128, 27.8473865 ], [ 92.1646499, 27.8314103 ], [ 92.1501016, 27.831638 ], [ 92.1429348, 27.8350156 ], [ 92.1326351, 27.8271027 ], [ 92.128129, 27.8175193 ], [ 92.1099909, 27.8027161 ], [ 92.0625329, 27.7897144 ], [ 92.0572757, 27.7798604 ], [ 92.0445563, 27.7804075 ], [ 92.0392931, 27.7759738 ], [ 92.0341756, 27.7759216 ], [ 92.0328056, 27.7793161 ], [ 92.0177658, 27.7766281 ], [ 92.0112102, 27.7816419 ], [ 92.0050692, 27.7806008 ], [ 92.0031638, 27.7837613 ], [ 91.9994669, 27.7796927 ], [ 91.9954133, 27.7819297 ], [ 91.9872541, 27.7776819 ], [ 91.9784789, 27.7790847 ], [ 91.9771613, 27.7630868 ], [ 91.9749179, 27.7562204 ], [ 91.9673466, 27.7494049 ], [ 91.9654155, 27.738979 ], [ 91.9529881, 27.7367888 ], [ 91.9446659, 27.7275264 ], [ 91.9376063, 27.7269566 ], [ 91.934452, 27.7211063 ], [ 91.9278002, 27.7204035 ], [ 91.9247579, 27.7166256 ], [ 91.9031886, 27.7292779 ], [ 91.8908591, 27.7219899 ], [ 91.8734586, 27.7220845 ], [ 91.8707335, 27.725494 ], [ 91.8724501, 27.7295112 ], [ 91.8619214, 27.7358574 ], [ 91.8527614, 27.7574849 ], [ 91.839518, 27.7671581 ], [ 91.8395054, 27.7797332 ], [ 91.8288913, 27.7881004 ], [ 91.8296651, 27.7905092 ], [ 91.8146019, 27.7842068 ], [ 91.8084537, 27.7878368 ], [ 91.8092901, 27.7806213 ], [ 91.8062646, 27.7751161 ], [ 91.7843644, 27.7775813 ], [ 91.7789483, 27.7709373 ], [ 91.7714595, 27.7775443 ], [ 91.7709446, 27.789656 ], [ 91.7610526, 27.7908139 ], [ 91.7445299, 27.7999716 ], [ 91.7385986, 27.7911482 ], [ 91.7345316, 27.7931025 ], [ 91.725862, 27.7798604 ], [ 91.7056703, 27.7933006 ], [ 91.689384, 27.813344 ], [ 91.6677761, 27.8261085 ], [ 91.65614, 27.8309908 ], [ 91.6310406, 27.8322831 ], [ 91.6111252, 27.8418447 ], [ 91.5908445, 27.8312786 ], [ 91.5769184, 27.8327587 ], [ 91.5670046, 27.8250309 ], [ 91.5655895, 27.8186828 ], [ 91.5802073, 27.8115456 ], [ 91.5868213, 27.8176486 ], [ 91.598351, 27.817928 ], [ 91.601653, 27.822131 ], [ 91.6085351, 27.823503 ], [ 91.6298269, 27.80933 ], [ 91.6344371, 27.80382 ], [ 91.6379741, 27.777468 ], [ 91.644836, 27.770221 ], [ 91.6418893, 27.7523238 ], [ 91.6352506, 27.7465239 ], [ 91.6392481, 27.7356379 ], [ 91.6320383, 27.7174052 ], [ 91.627208, 27.7156682 ], [ 91.6303727, 27.7082205 ], [ 91.628826, 27.6993451 ], [ 91.6078749, 27.6907196 ], [ 91.6047816, 27.683605 ], [ 91.5963583, 27.6798692 ], [ 91.5946689, 27.670399 ], [ 91.5728492, 27.6608336 ], [ 91.5623082, 27.6322086 ], [ 91.5650208, 27.6258079 ] ] ] } }
]
}
